{"type":"Feature","properties":{"source":"brandenburg-dgm1","attribution":"outline \u00a9 OpenStreetMap contributors, ODbL 1.0, by Geofabrik"},"geometry":{"type":"MultiPolygon","coordinates":[[[[14.73867,51.57873],[14.70863,51.57579],[14.69387,51.55765],[14.6768,51.54666],[14.60701,51.54676],[14.58435,51.56853],[14.51912,51.5521],[14.45114,51.53972],[14.35158,51.51729],[14.34402,51.5034],[14.32377,51.50148],[14.31724,51.51686],[14.2218,51.53224],[14.14524,51.53801],[14.15279,51.519],[14.11022,51.51708],[14.0934,51.4739],[14.05563,51.46813],[14.06834,51.44652],[14.03812,51.40049],[14.00345,51.37071],[13.96671,51.37521],[13.96088,51.39321],[13.91178,51.37414],[13.84518,51.37242],[13.77274,51.35613],[13.6718,51.36706],[13.54919,51.36237],[13.46031,51.41056],[13.45963,51.41934],[13.41946,51.42083],[13.4095,51.4386],[13.39748,51.44844],[13.38135,51.42148],[13.33397,51.42619],[13.2914,51.39942],[13.27183,51.38035],[13.22353,51.38768],[13.1702,51.42768],[13.1782,51.5404],[13.1345,51.56896],[13.14377,51.59222],[13.12111,51.60757],[13.08643,51.60181],[13.04455,51.64764],[13.13793,51.6849],[13.14789,51.71108],[13.17226,51.7232],[13.13931,51.7485],[13.15098,51.78908],[13.13278,51.8188],[13.11562,51.87225],[13.08815,51.8608],[13.0394,51.86695],[12.96902,51.89789],[12.84679,51.93368],[12.84027,51.96267],[12.77744,51.95802],[12.67101,52.00179],[12.61883,51.97727],[12.53506,51.97896],[12.35104,52.0451],[12.27242,52.10123],[12.19482,52.17562],[12.2628,52.22275],[12.22984,52.25324],[12.27962,52.32506],[12.27997,52.36239],[12.26623,52.41708],[12.31087,52.45852],[12.30263,52.48508],[12.2731,52.4832],[12.23465,52.49553],[12.17903,52.49511],[12.13165,52.52437],[12.16942,52.6316],[12.22195,52.63223],[12.19105,52.71716],[12.19036,52.76642],[12.23843,52.8092],[12.19688,52.86561],[12.12307,52.84944],[12.07191,52.8768],[11.9569,52.86954],[11.80618,52.90807],[11.82026,52.94409],[11.7794,52.95402],[11.75022,52.97904],[11.6946,52.97201],[11.62971,53.00032],[11.59641,53.02676],[11.49445,53.0474],[11.44741,53.0732],[11.33446,53.04679],[11.26133,53.09753],[11.26064,53.12453],[11.37428,53.11731],[11.39454,53.14306],[11.45874,53.14389],[11.5353,53.13565],[11.54835,53.21426],[11.62457,53.24447],[11.69666,53.24919],[11.75056,53.22618],[11.79314,53.23378],[11.79451,53.25741],[11.85802,53.25679],[11.88755,53.28102],[11.94763,53.2802],[11.97201,53.30031],[12.01286,53.30298],[12.00806,53.33743],[12.04411,53.37637],[12.22984,53.36387],[12.28271,53.33764],[12.40082,53.30277],[12.45438,53.26295],[12.56561,53.27199],[12.7256,53.24755],[12.78774,53.20747],[13.0188,53.19472],[13.09673,53.24303],[13.29861,53.28595],[13.47919,53.3077],[13.54031,53.39787],[13.6124,53.43367],[13.70579,53.48662],[13.76621,53.48764],[13.77788,53.56009],[13.80775,53.56295],[13.88603,53.50826],[13.92586,53.44124],[14.04499,53.43511],[14.11984,53.44738],[14.24309,53.43838],[14.26144,53.3764],[14.1267,53.27692],[14.23553,53.26624],[14.31244,53.31529],[14.40617,53.33374],[14.42236,53.33495],[14.42438,53.30853],[14.43556,53.28224],[14.45457,53.278],[14.45867,53.2595],[14.41916,53.2189],[14.4117,53.20651],[14.38822,53.19557],[14.38151,53.1643],[14.39754,53.14575],[14.35989,53.04827],[14.32616,53.03146],[14.22813,52.98549],[14.1793,52.97135],[14.15209,52.95518],[14.15917,52.94373],[14.1573,52.93272],[14.16721,52.88861],[14.16275,52.8683],[14.12722,52.84415],[14.13975,52.83057],[14.21769,52.82373],[14.31225,52.76656],[14.36309,52.75281],[14.44839,52.68275],[14.46853,52.67235],[14.47787,52.65942],[14.53697,52.63869],[14.60495,52.61014],[14.618,52.59179],[14.64615,52.57093],[14.61727,52.51933],[14.64718,52.49679],[14.58605,52.43059],[14.55463,52.42273],[14.54126,52.3953],[14.55671,52.37518],[14.55783,52.34976],[14.58298,52.31981],[14.60039,52.28483],[14.7034,52.26395],[14.72857,52.22906],[14.71584,52.16572],[14.68906,52.14339],[14.69009,52.11241],[14.74099,52.09762],[14.77495,52.05961],[14.72869,52.00424],[14.72048,51.98171],[14.70966,51.97568],[14.71361,51.95982],[14.72237,51.95389],[14.72151,51.94215],[14.70074,51.90149],[14.60152,51.82347],[14.66057,51.79673],[14.67236,51.74483],[14.75505,51.68793],[14.76975,51.60661],[14.73867,51.57873]]]]}}
