{"type":"Feature","properties":{"source":"bw-dom1","attribution":"outline \u00a9 OpenStreetMap contributors, ODbL 1.0, by Geofabrik"},"geometry":{"type":"MultiPolygon","coordinates":[[[[8.226564,48.96707],[8.290483,49.0043],[8.308333,49.05907],[8.353387,49.10233],[8.362435,49.17175],[8.383821,49.21301],[8.381765,49.24121],[8.409009,49.25912],[8.442378,49.28162],[8.466292,49.29431],[8.47964,49.29504],[8.469629,49.30701],[8.444046,49.31426],[8.444046,49.33166],[8.462399,49.34434],[8.48965,49.36716],[8.454613,49.37622],[8.462399,49.39287],[8.482977,49.40264],[8.500217,49.4343],[8.464624,49.439],[8.436817,49.44696],[8.435148,49.46069],[8.454613,49.46937],[8.440153,49.4878],[8.405672,49.55351],[8.417351,49.58993],[8.45072,49.59642],[8.473522,49.59678],[8.530805,49.55639],[8.546377,49.53294],[8.583083,49.52644],[8.60811,49.55098],[8.585864,49.59101],[8.580302,49.61156],[8.61812,49.62309],[8.695425,49.63137],[8.708772,49.58993],[8.699318,49.5719],[8.732757,49.52788],[8.776359,49.52409],[8.825798,49.52989],[8.823738,49.51183],[8.902359,49.50559],[8.930511,49.47906],[8.948364,49.50738],[8.986129,49.51206],[9.031105,49.50648],[9.069934,49.53864],[9.068785,49.56425],[9.0699,49.57644],[9.103889,49.58223],[9.236755,49.58512],[9.266624,49.63651],[9.30027,49.65696],[9.397087,49.66274],[9.380607,49.69007],[9.291343,49.7338],[9.308853,49.77173],[9.426613,49.79456],[9.578704,49.78703],[9.654235,49.7939],[9.657669,49.7116],[9.71363,49.73047],[9.802208,49.73424],[9.840316,49.69806],[9.876709,49.6096],[9.918937,49.58445],[9.953613,49.48642],[10.02028,49.49676],[10.03189,49.529],[10.06039,49.54905],[10.093,49.54504],[10.12699,49.50871],[10.12562,49.46344],[10.17094,49.38885],[10.12012,49.37433],[10.12776,49.35269],[10.11755,49.332],[10.14244,49.32814],[10.15841,49.28124],[10.12922,49.2334],[10.15944,49.19405],[10.25419,49.14881],[10.2602,49.13006],[10.21917,49.10152],[10.25162,49.09388],[10.27634,49.05092],[10.35015,49.03112],[10.41641,48.98089],[10.45383,48.9419],[10.46173,48.90783],[10.45521,48.80958],[10.43426,48.76479],[10.51495,48.69663],[10.46516,48.6633],[10.35152,48.6472],[10.33264,48.67827],[10.26535,48.67713],[10.3299,48.60794],[10.31822,48.52138],[10.17815,48.45744],[10.12699,48.4522],[10.10536,48.46427],[10.04219,48.44537],[10.04597,48.42761],[10.01327,48.40163],[9.989405,48.39069],[9.977131,48.3786],[10.00185,48.36435],[10.06897,48.28091],[10.07154,48.24125],[10.0882,48.20488],[10.11532,48.12737],[10.14261,48.1127],[10.1457,48.03654],[10.12064,47.97407],[10.08871,47.9628],[10.11463,47.93647],[10.1088,47.86212],[10.14278,47.80785],[10.07704,47.7864],[10.12064,47.76137],[10.14296,47.70271],[10.13231,47.67001],[10.09283,47.65787],[10.07635,47.63602],[10.06863,47.64041],[10.06056,47.67209],[9.993954,47.6744],[9.971638,47.64943],[9.932842,47.65105],[9.89027,47.66157],[9.855938,47.67394],[9.836712,47.66273],[9.750881,47.602],[9.715862,47.60142],[9.648056,47.59887],[9.646168,47.58834],[9.614582,47.57884],[9.603166,47.58191],[9.568846,47.53637],[9.566016,47.53274],[9.511991,47.53246],[9.257166,47.65752],[9.202392,47.65489],[9.186843,47.65697],[9.175913,47.65379],[9.170285,47.65474],[9.155548,47.666],[9.149401,47.66713],[9.139468,47.66367],[9.131947,47.66578],[9.083404,47.67636],[9.031386,47.6834],[8.980785,47.6705],[8.941273,47.65569],[8.896961,47.64593],[8.882626,47.65327],[8.874739,47.6545],[8.872349,47.66971],[8.849493,47.68089],[8.849927,47.70233],[8.818155,47.71242],[8.801323,47.72681],[8.785749,47.72516],[8.77549,47.71473],[8.802318,47.70121],[8.812951,47.6959],[8.796867,47.67232],[8.776356,47.67892],[8.753301,47.68997],[8.725752,47.6917],[8.711398,47.68777],[8.689367,47.69318],[8.671149,47.6829],[8.661989,47.68547],[8.656862,47.6911],[8.669993,47.7003],[8.662608,47.70457],[8.661606,47.71454],[8.722521,47.71653],[8.707874,47.72523],[8.713053,47.74125],[8.730326,47.75527],[8.720028,47.76273],[8.688705,47.75314],[8.682725,47.77008],[8.679226,47.78419],[8.657985,47.78994],[8.650537,47.79565],[8.654287,47.77361],[8.646752,47.76462],[8.631322,47.75749],[8.61918,47.76216],[8.613514,47.78451],[8.616484,47.79603],[8.609139,47.80029],[8.593503,47.79744],[8.567997,47.79977],[8.563882,47.79288],[8.576105,47.79015],[8.578471,47.78102],[8.56315,47.77654],[8.529788,47.77687],[8.519373,47.76965],[8.489374,47.7688],[8.457423,47.74126],[8.462303,47.72909],[8.449293,47.71663],[8.422688,47.70807],[8.414711,47.69991],[8.427303,47.68562],[8.415918,47.6743],[8.440344,47.6649],[8.469661,47.66016],[8.474184,47.65258],[8.496737,47.65153],[8.517506,47.6536],[8.537995,47.67185],[8.556695,47.67164],[8.570331,47.67023],[8.580894,47.67542],[8.609074,47.67324],[8.631713,47.65233],[8.624695,47.63388],[8.602636,47.63262],[8.612806,47.61327],[8.584337,47.59208],[8.555859,47.59672],[8.56234,47.61117],[8.528154,47.62756],[8.507736,47.61413],[8.484145,47.6108],[8.46111,47.59874],[8.468036,47.58595],[8.489851,47.59139],[8.497283,47.58065],[8.486938,47.57595],[8.464451,47.57091],[8.431063,47.56494],[8.39776,47.5749],[8.385658,47.56344],[8.357334,47.56882],[8.326692,47.56992],[8.319139,47.57328],[8.309784,47.58203],[8.298712,47.58654],[8.293991,47.59088],[8.293133,47.59551],[8.294935,47.60576],[8.262062,47.60802],[8.257255,47.61351],[8.238287,47.61068],[8.232279,47.60529],[8.225756,47.60333],[8.221292,47.60634],[8.217945,47.61606],[8.210392,47.61947],[8.200092,47.61803],[8.19005,47.60564],[8.167906,47.59331],[8.137178,47.58261],[8.107052,47.57774],[8.103018,47.56286],[8.094091,47.55759],[8.085852,47.55573],[8.078213,47.55718],[8.068085,47.56309],[8.060017,47.56251],[8.04976,47.55507],[8.021607,47.54901],[8.012381,47.55035],[7.995686,47.55507],[7.97174,47.55385],[7.960839,47.55692],[7.954016,47.55359],[7.951999,47.54615],[7.947578,47.5427],[7.940712,47.5429],[7.931356,47.54568],[7.916465,47.54638],[7.90904,47.55084],[7.905092,47.55883],[7.905564,47.56245],[7.909298,47.56839],[7.890587,47.58521],[7.865181,47.58579],[7.846298,47.57959],[7.819004,47.58272],[7.815227,47.5679],[7.802095,47.56222],[7.797804,47.55608],[7.789478,47.55284],[7.760467,47.54658],[7.750683,47.54247],[7.720127,47.5398],[7.71266,47.5365],[7.696524,47.53076],[7.682018,47.53088],[7.668114,47.53325],[7.647343,47.5471],[7.630434,47.56141],[7.613525,47.55712],[7.586489,47.59013],[7.589579,47.60124],[7.572927,47.61288],[7.563314,47.63185],[7.524519,47.65209],[7.514477,47.67238],[7.506494,47.70237],[7.536053,47.72271],[7.541032,47.73606],[7.523918,47.77798],[7.557124,47.84839],[7.549463,47.87338],[7.553581,47.88424],[7.578666,47.89745],[7.574615,47.93028],[7.613179,47.96804],[7.611904,47.9871],[7.562205,48.0332],[7.566702,48.05764],[7.561067,48.08531],[7.574915,48.1258],[7.594912,48.13676],[7.595338,48.15977],[7.633047,48.19717],[7.64808,48.21769],[7.662748,48.22473],[7.684659,48.30305],[7.731776,48.32652],[7.734696,48.34826],[7.724517,48.37637],[7.729866,48.40569],[7.761246,48.46079],[7.763463,48.49158],[7.794971,48.50819],[7.802009,48.55696],[7.79746,48.5816],[7.799582,48.5878],[7.834088,48.64439],[7.883549,48.66523],[7.958799,48.72833],[7.958545,48.75525],[7.971347,48.76372],[7.989349,48.76497],[8.007903,48.76299],[8.017443,48.77024],[8.020692,48.78879],[8.043024,48.7956],[8.064676,48.79379],[8.100241,48.82308],[8.112246,48.86152],[8.130868,48.8969],[8.16585,48.9289],[8.193647,48.96021],[8.226564,48.96707]]]]}}
