{"type":"Feature","properties":{"source":"by-lod2","attribution":"outline \u00a9 OpenStreetMap contributors, ODbL 1.0, by Geofabrik"},"geometry":{"type":"MultiPolygon","coordinates":[[[[9.512461,47.53246],[9.512623,47.5356],[9.599312,47.58426],[9.608145,47.58729],[9.614067,47.58133],[9.631169,47.59795],[9.639479,47.60685],[9.658363,47.61381],[9.688431,47.60912],[9.693283,47.61177],[9.702914,47.60551],[9.718957,47.61001],[9.734882,47.61725],[9.758649,47.61804],[9.793415,47.64817],[9.817055,47.66667],[9.833313,47.6737],[9.839973,47.67795],[9.851278,47.67953],[9.874921,47.67692],[9.900109,47.66284],[9.964295,47.65609],[9.995436,47.68184],[10.01501,47.68782],[10.02912,47.68835],[10.03533,47.67977],[10.04846,47.68211],[10.06289,47.68132],[10.07972,47.65178],[10.09012,47.67481],[10.11154,47.66904],[10.12788,47.67862],[10.12545,47.70746],[10.11183,47.72066],[10.11111,47.76073],[10.08152,47.77055],[10.06249,47.78523],[10.09092,47.80515],[10.10877,47.80515],[10.11344,47.81188],[10.13136,47.81492],[10.11547,47.8308],[10.09847,47.84443],[10.09315,47.84312],[10.09033,47.84582],[10.10361,47.86288],[10.08052,47.85379],[10.07596,47.86933],[10.09598,47.87407],[10.09422,47.8913],[10.10653,47.91878],[10.10324,47.92362],[10.1098,47.93532],[10.08562,47.94849],[10.08325,47.96011],[10.08657,47.97091],[10.09343,47.97407],[10.11188,47.9782],[10.11472,47.99117],[10.11914,48.00515],[10.13173,48.01767],[10.12691,48.03413],[10.13841,48.05479],[10.13969,48.06236],[10.1336,48.08215],[10.13231,48.11173],[10.12218,48.11614],[10.10991,48.12348],[10.10073,48.1461],[10.09283,48.15973],[10.08511,48.18177],[10.07566,48.21083],[10.067,48.22324],[10.06082,48.24257],[10.06073,48.25726],[10.06142,48.27354],[10.04116,48.2929],[10.02245,48.3223],[10.01026,48.3312],[10.00657,48.34256],[9.999361,48.34421],[9.993181,48.35499],[9.991937,48.36329],[9.99155,48.36771],[9.982452,48.36155],[9.976787,48.3615],[9.966416,48.37037],[9.967437,48.37709],[9.970106,48.38074],[9.984335,48.38734],[9.988433,48.39358],[9.993036,48.39575],[10.00263,48.39876],[10.01195,48.40297],[10.01638,48.40992],[10.01598,48.41785],[10.0271,48.4248],[10.03562,48.42894],[10.04049,48.4302],[10.03468,48.43223],[10.03114,48.43612],[10.02708,48.43647],[10.02993,48.45728],[10.03709,48.46006],[10.07109,48.46016],[10.10489,48.47867],[10.12119,48.47523],[10.13412,48.45665],[10.16376,48.46155],[10.18122,48.47623],[10.21741,48.49016],[10.22836,48.51257],[10.26604,48.52218],[10.29831,48.52092],[10.30088,48.5498],[10.31118,48.55934],[10.30741,48.57683],[10.29048,48.59046],[10.29161,48.60533],[10.31753,48.61021],[10.29505,48.6236],[10.25377,48.66004],[10.25299,48.67832],[10.26739,48.70537],[10.34337,48.68756],[10.36321,48.66224],[10.38259,48.67047],[10.39083,48.69],[10.40428,48.70039],[10.4218,48.70354],[10.43505,48.6996],[10.44066,48.69371],[10.42393,48.6663],[10.46111,48.67397],[10.48199,48.68891],[10.46679,48.70475],[10.46549,48.71368],[10.45917,48.72447],[10.44431,48.72715],[10.42748,48.73751],[10.41392,48.74759],[10.41822,48.75879],[10.4098,48.77062],[10.41993,48.80053],[10.44368,48.81237],[10.44379,48.83088],[10.42367,48.83673],[10.42791,48.84647],[10.44596,48.8528],[10.44111,48.89356],[10.41523,48.90561],[10.45243,48.91795],[10.43624,48.93225],[10.42216,48.95368],[10.40148,48.96737],[10.37916,48.98923],[10.35238,49.00472],[10.32784,49.0229],[10.302,49.0301],[10.28483,49.03517],[10.26647,49.04141],[10.25359,49.03742],[10.24801,49.04107],[10.25668,49.06723],[10.23394,49.07291],[10.23248,49.07645],[10.2414,49.08556],[10.21033,49.09259],[10.20216,49.09713],[10.21205,49.11282],[10.22381,49.12079],[10.24484,49.12838],[10.25256,49.13837],[10.21581,49.15871],[10.20407,49.15336],[10.19651,49.15443],[10.18982,49.16481],[10.15815,49.18299],[10.15145,49.18956],[10.12279,49.19556],[10.1245,49.23402],[10.10845,49.25761],[10.11369,49.26758],[10.12313,49.27761],[10.1439,49.27425],[10.13316,49.29252],[10.12897,49.30375],[10.13729,49.3207],[10.11111,49.32607],[10.10262,49.33648],[10.09995,49.34295],[10.10613,49.35387],[10.11111,49.36695],[10.10402,49.37669],[10.11075,49.38613],[10.12124,49.38925],[10.14107,49.38762],[10.15634,49.39293],[10.13493,49.4037],[10.14493,49.40712],[10.12766,49.42954],[10.09321,49.4471],[10.09281,49.45502],[10.11223,49.47298],[10.09618,49.48647],[10.10287,49.51256],[10.08141,49.50944],[10.07677,49.51402],[10.07555,49.52447],[10.0848,49.53759],[10.06528,49.54415],[10.06021,49.51796],[10.05137,49.50565],[10.03284,49.50247],[10.01996,49.48352],[9.975243,49.48017],[9.952068,49.47911],[9.927092,49.48279],[9.912249,49.49227],[9.910049,49.5024],[9.920201,49.53707],[9.913476,49.55841],[9.897566,49.55974],[9.897137,49.58412],[9.877481,49.57677],[9.868586,49.54789],[9.85215,49.54299],[9.807619,49.55405],[9.809074,49.55857],[9.841518,49.57733],[9.838772,49.59508],[9.857826,49.60943],[9.866924,49.61082],[9.850788,49.64073],[9.829674,49.64713],[9.818859,49.66568],[9.830274,49.69812],[9.791908,49.72109],[9.756889,49.70933],[9.748918,49.68961],[9.738738,49.68671],[9.727538,49.68774],[9.724191,49.69732],[9.702889,49.7152],[9.681358,49.71543],[9.677698,49.6928],[9.664696,49.68501],[9.654236,49.68618],[9.631576,49.69173],[9.624538,49.70317],[9.622318,49.71123],[9.621009,49.7314],[9.638562,49.74732],[9.636125,49.75532],[9.646854,49.78802],[9.621105,49.78259],[9.57716,49.77716],[9.55905,49.77611],[9.560423,49.76231],[9.571152,49.75077],[9.569607,49.74523],[9.564199,49.74306],[9.558105,49.74345],[9.552956,49.74695],[9.548535,49.76303],[9.544458,49.76619],[9.537334,49.76724],[9.53064,49.762],[9.525404,49.76034],[9.518537,49.76009],[9.511499,49.76447],[9.506435,49.77129],[9.511156,49.78215],[9.501028,49.78791],[9.483175,49.78697],[9.472704,49.7801],[9.470472,49.77317],[9.458628,49.76852],[9.444345,49.76866],[9.431568,49.78699],[9.420433,49.78764],[9.405498,49.77594],[9.38889,49.76816],[9.371982,49.77747],[9.354,49.76821],[9.314604,49.76624],[9.315419,49.75826],[9.323187,49.75177],[9.324818,49.74659],[9.323144,49.74306],[9.320784,49.74112],[9.314775,49.73893],[9.337134,49.73494],[9.379961,49.73307],[9.401669,49.73231],[9.412684,49.72499],[9.419094,49.71808],[9.423381,49.71036],[9.42587,49.69647],[9.414799,49.67602],[9.422861,49.66519],[9.419045,49.65457],[9.41141,49.64723],[9.406512,49.64582],[9.406144,49.64545],[9.405594,49.64555],[9.384799,49.63954],[9.365016,49.65208],[9.342842,49.64257],[9.308761,49.64941],[9.275859,49.62815],[9.288136,49.61398],[9.269042,49.6051],[9.2563,49.58378],[9.232185,49.57734],[9.187591,49.57217],[9.123278,49.5725],[9.099426,49.57633],[9.082628,49.59742],[9.064321,49.6017],[9.062013,49.61576],[9.066811,49.62328],[9.098997,49.65946],[9.086981,49.66818],[9.083895,49.68472],[9.088955,49.69623],[9.112846,49.7045],[9.142453,49.74372],[9.105089,49.75788],[9.110413,49.7745],[9.131441,49.78248],[9.125948,49.78797],[9.127579,49.79478],[9.111442,49.79595],[9.094534,49.78919],[9.088955,49.78969],[9.075222,49.81633],[9.057798,49.83178],[9.048185,49.84081],[9.039602,49.83843],[9.033852,49.84618],[9.031706,49.86748],[9.042864,49.87113],[9.03574,49.87638],[9.036426,49.89005],[9.034367,49.89596],[9.02647,49.90763],[9.021792,49.90987],[9.029131,49.92426],[9.025526,49.93401],[9.024153,49.94517],[9.017758,49.94672],[9.024281,49.95525],[9.017672,49.97756],[9.012523,49.99135],[9.034367,50.00666],[9.038401,50.01019],[9.031749,50.01695],[9.029205,50.0216],[9.028827,50.02764],[9.031012,50.03636],[9.024765,50.04248],[9.006729,50.04463],[8.991795,50.04113],[8.984928,50.04071],[8.97789,50.04402],[8.975186,50.04948],[8.976088,50.05279],[8.989679,50.06675],[8.99023,50.0695],[8.997731,50.0702],[8.996395,50.09377],[9.015416,50.11224],[9.051064,50.11762],[9.097362,50.12605],[9.121111,50.12825],[9.154767,50.11828],[9.168474,50.11292],[9.182475,50.13892],[9.222066,50.15072],[9.25898,50.14054],[9.280213,50.144],[9.30985,50.13623],[9.327027,50.14312],[9.381631,50.13137],[9.393189,50.11702],[9.413499,50.0882],[9.47005,50.09652],[9.507876,50.10069],[9.504032,50.14748],[9.493802,50.18597],[9.505461,50.2002],[9.492552,50.2226],[9.498845,50.24344],[9.507533,50.24392],[9.548722,50.23076],[9.576645,50.23392],[9.617969,50.22587],[9.637367,50.24042],[9.634666,50.25253],[9.651661,50.27267],[9.704674,50.28439],[9.710502,50.29168],[9.720145,50.29546],[9.744294,50.31266],[9.741298,50.32771],[9.731985,50.35081],[9.731641,50.35823],[9.741037,50.36353],[9.749679,50.41443],[9.758949,50.42607],[9.769421,50.42689],[9.788475,50.4264],[9.804182,50.42569],[9.810362,50.42224],[9.853449,50.40239],[9.870186,50.41087],[9.917221,50.41207],[9.970269,50.43797],[9.9967,50.46182],[10.0162,50.47085],[10.02975,50.48657],[10.03833,50.51659],[10.07472,50.54115],[10.10433,50.56498],[10.12055,50.56623],[10.17506,50.55298],[10.19445,50.55685],[10.20578,50.55549],[10.23497,50.53133],[10.2572,50.51468],[10.33247,50.49541],[10.34311,50.48449],[10.34672,50.46843],[10.368,50.44433],[10.38191,50.44073],[10.40457,50.427],[10.4074,50.42307],[10.38946,50.40058],[10.42827,50.39574],[10.44099,50.4066],[10.45638,50.40325],[10.46585,50.3793],[10.47992,50.37973],[10.49306,50.37656],[10.50276,50.3609],[10.53203,50.3678],[10.54739,50.36518],[10.55838,50.3568],[10.55907,50.34176],[10.60239,50.33543],[10.60679,50.29422],[10.61434,50.25149],[10.61451,50.22546],[10.65914,50.23332],[10.68781,50.22755],[10.72223,50.2075],[10.72472,50.23101],[10.72317,50.24788],[10.73188,50.25505],[10.76823,50.24375],[10.78059,50.25308],[10.80179,50.25291],[10.83029,50.24073],[10.84747,50.25889],[10.84172,50.27059],[10.80952,50.27618],[10.76961,50.29142],[10.71287,50.32081],[10.70995,50.3551],[10.71193,50.36501],[10.73879,50.36463],[10.7527,50.35954],[10.76211,50.3714],[10.78428,50.38669],[10.82977,50.39413],[10.87586,50.3984],[10.90248,50.38884],[10.93512,50.39431],[10.96496,50.37722],[10.96684,50.36868],[10.98754,50.35115],[10.99239,50.36735],[11.03586,50.36321],[11.05273,50.34849],[11.07439,50.35641],[11.0897,50.36806],[11.11104,50.37001],[11.13878,50.35423],[11.14473,50.34447],[11.16168,50.33149],[11.16323,50.32568],[11.16048,50.32338],[11.13559,50.3099],[11.14782,50.28758],[11.1598,50.29127],[11.18706,50.28141],[11.19635,50.29389],[11.2479,50.27294],[11.25364,50.27907],[11.24957,50.30051],[11.25824,50.33844],[11.25931,50.35445],[11.27181,50.37773],[11.26236,50.3863],[11.25704,50.39993],[11.2633,50.43881],[11.24425,50.44925],[11.24185,50.47969],[11.25652,50.48288],[11.30103,50.48951],[11.31884,50.49132],[11.31827,50.50829],[11.34496,50.52245],[11.36879,50.52571],[11.39377,50.52339],[11.42646,50.51707],[11.43157,50.51357],[11.44552,50.49771],[11.42235,50.48078],[11.42552,50.46166],[11.42261,50.44397],[11.48428,50.43321],[11.49624,50.40289],[11.52165,50.3973],[11.52504,50.37881],[11.57113,50.40135],[11.59358,50.40447],[11.60547,50.40023],[11.62126,50.39022],[11.67872,50.39738],[11.691,50.39615],[11.69679,50.40031],[11.71017,50.4061],[11.71452,50.39922],[11.74082,50.41073],[11.75172,50.41721],[11.78433,50.42104],[11.8004,50.41813],[11.81721,50.40259],[11.82674,50.40536],[11.83223,50.39689],[11.86526,50.40749],[11.88206,50.41642],[11.91776,50.42596],[11.93553,50.42498],[11.94669,50.41776],[11.9851,50.39046],[11.9878,50.35365],[11.9972,50.35431],[12.01621,50.34806],[12.04638,50.33382],[12.09226,50.33346],[12.12489,50.31143],[12.13324,50.30163],[12.13246,50.29486],[12.15057,50.27734],[12.12056,50.26056],[12.10805,50.25271],[12.1214,50.23957],[12.1355,50.23656],[12.14998,50.24025],[12.20808,50.19258],[12.22306,50.16848],[12.20086,50.13155],[12.21849,50.10527],[12.23264,50.10459],[12.23719,50.10052],[12.2507,50.0982],[12.25868,50.08932],[12.26276,50.08504],[12.28119,50.07786],[12.26382,50.06344],[12.30137,50.06183],[12.32263,50.05555],[12.32154,50.04671],[12.32936,50.03951],[12.33901,50.04379],[12.35488,50.03656],[12.38765,50.01615],[12.40446,50.01739],[12.41028,50.0093],[12.42406,50.00564],[12.43362,50.00613],[12.44251,49.99762],[12.4383,49.98966],[12.46202,49.99683],[12.47277,49.99111],[12.47822,49.98272],[12.48987,49.983],[12.50399,49.97411],[12.48307,49.94348],[12.52224,49.92872],[12.54689,49.92698],[12.55345,49.89588],[12.53748,49.88639],[12.50322,49.82727],[12.48329,49.83281],[12.47471,49.77966],[12.40898,49.75493],[12.41679,49.73527],[12.43525,49.73088],[12.45625,49.70461],[12.52345,49.68699],[12.53134,49.66899],[12.52808,49.64334],[12.53836,49.62447],[12.56733,49.6197],[12.57237,49.59439],[12.58554,49.58252],[12.58408,49.56453],[12.61336,49.53222],[12.63946,49.53342],[12.64639,49.52217],[12.64577,49.48268],[12.63882,49.47963],[12.6487,49.46848],[12.66345,49.45358],[12.66826,49.43209],[12.70937,49.42515],[12.76478,49.39642],[12.76741,49.36962],[12.78624,49.36125],[12.78387,49.34958],[12.81028,49.34408],[12.85236,49.34845],[12.87811,49.33709],[12.87456,49.35427],[12.92278,49.35055],[12.97792,49.33761],[13.01466,49.30781],[13.0333,49.30749],[13.03397,49.26499],[13.05669,49.26606],[13.06677,49.25036],[13.0817,49.24806],[13.08634,49.24279],[13.09064,49.23819],[13.09236,49.22686],[13.11642,49.22086],[13.11347,49.20367],[13.144,49.19208],[13.17529,49.17479],[13.18396,49.13569],[13.20898,49.12287],[13.23885,49.11528],[13.2647,49.12099],[13.27817,49.12226],[13.28882,49.11899],[13.32938,49.10054],[13.3412,49.09197],[13.34636,49.08784],[13.34849,49.08268],[13.3584,49.07681],[13.40114,49.05057],[13.39795,49.03931],[13.40669,49.0288],[13.41086,49.00263],[13.41104,48.98576],[13.47638,48.95733],[13.4977,48.94801],[13.50614,48.9776],[13.51951,48.98239],[13.54328,48.97896],[13.55362,48.9712],[13.57091,48.97518],[13.58541,48.97401],[13.60272,48.95538],[13.63089,48.95826],[13.63474,48.94806],[13.63103,48.93985],[13.64819,48.91558],[13.66799,48.89922],[13.6845,48.88518],[13.72102,48.88265],[13.73125,48.88841],[13.74007,48.88674],[13.75044,48.87093],[13.76967,48.84364],[13.78607,48.83833],[13.82259,48.7974],[13.81835,48.78202],[13.84947,48.77171],[13.83021,48.75108],[13.82308,48.73193],[13.80484,48.72046],[13.80951,48.71897],[13.82383,48.71758],[13.82979,48.7064],[13.84709,48.70275],[13.84305,48.69716],[13.83441,48.69057],[13.82239,48.69003],[13.83313,48.63579],[13.82488,48.60994],[13.81222,48.60059],[13.81139,48.58081],[13.77373,48.54915],[13.75224,48.55811],[13.76021,48.54969],[13.75148,48.52823],[13.73748,48.52335],[13.72734,48.50779],[13.65439,48.53349],[13.6475,48.54753],[13.62305,48.55145],[13.59644,48.56559],[13.57749,48.55429],[13.55185,48.56431],[13.51659,48.58697],[13.50935,48.58393],[13.5117,48.57356],[13.49098,48.56128],[13.46677,48.55087],[13.44953,48.55935],[13.44108,48.55482],[13.45935,48.53496],[13.45044,48.52699],[13.46336,48.50848],[13.43183,48.45435],[13.44554,48.43281],[13.42823,48.40494],[13.41784,48.37232],[13.32637,48.31573],[13.26537,48.29023],[13.1827,48.29121],[13.14149,48.27787],[13.08493,48.27246],[13.02157,48.25047],[13.0022,48.23255],[12.95525,48.20247],[12.87323,48.19743],[12.85028,48.16219],[12.83376,48.1509],[12.80605,48.14434],[12.78837,48.11772],[12.76824,48.1227],[12.75538,48.10814],[12.76559,48.0757],[12.85832,48.01956],[12.87696,47.96667],[12.91032,47.95998],[12.92464,47.95859],[12.92435,47.94355],[12.94043,47.9474],[12.94796,47.9299],[12.99583,47.86452],[13.00632,47.85452],[13.01197,47.85009],[13.00195,47.83558],[12.99528,47.82991],[12.98799,47.8237],[12.96354,47.79163],[12.94411,47.75675],[12.91567,47.7252],[12.98931,47.71869],[13.02024,47.73236],[13.05648,47.716],[13.08628,47.68766],[13.10973,47.63938],[13.08662,47.61659],[13.08393,47.58983],[13.06011,47.58182],[13.07103,47.56221],[13.04555,47.53387],[13.0614,47.52016],[13.05811,47.4919],[13.0175,47.46649],[13.00242,47.4609],[12.9835,47.47866],[12.96788,47.4682],[12.92283,47.48669],[12.87799,47.51233],[12.83233,47.54025],[12.78485,47.55199],[12.77731,47.58711],[12.79467,47.61848],[12.8037,47.61956],[12.74895,47.64473],[12.75571,47.6615],[12.73171,47.67488],[12.6089,47.66673],[12.5783,47.63055],[12.52419,47.62771],[12.50095,47.62061],[12.45798,47.65009],[12.43809,47.67622],[12.43379,47.69226],[12.39049,47.68271],[12.3625,47.6829],[12.33097,47.69244],[12.27836,47.68815],[12.26292,47.67455],[12.24829,47.67659],[12.23192,47.70739],[12.24308,47.72556],[12.20889,47.70365],[12.17217,47.6868],[12.18735,47.66854],[12.20713,47.63555],[12.21348,47.61305],[12.20884,47.60321],[12.17546,47.59888],[12.17594,47.61086],[12.15352,47.60764],[12.14061,47.60314],[12.08329,47.60848],[12.02081,47.61016],[12.00686,47.61849],[11.98252,47.61534],[11.97719,47.6111],[11.96405,47.61294],[11.86054,47.59953],[11.85147,47.5772],[11.78195,47.58583],[11.73641,47.5844],[11.72483,47.58672],[11.65935,47.5799],[11.63482,47.59225],[11.6382,47.58069],[11.61048,47.57688],[11.59424,47.55506],[11.5905,47.52527],[11.57745,47.51574],[11.57088,47.51242],[11.50567,47.5027],[11.4678,47.50635],[11.44516,47.50415],[11.43523,47.51377],[11.41188,47.49198],[11.39048,47.47765],[11.41355,47.47312],[11.4172,47.46201],[11.42561,47.44322],[11.33762,47.44453],[11.33168,47.43629],[11.30951,47.42809],[11.29503,47.4089],[11.27474,47.39619],[11.255,47.39812],[11.22624,47.39352],[11.21982,47.39775],[11.24496,47.42894],[11.22636,47.42866],[11.20587,47.43291],[11.2006,47.42649],[11.15241,47.41775],[11.11692,47.39344],[11.06393,47.39487],[11.02425,47.3913],[10.96756,47.39777],[10.96261,47.41843],[10.97799,47.42743],[10.95719,47.44667],[10.91905,47.4716],[10.92945,47.47841],[10.90964,47.48054],[10.89387,47.47927],[10.87783,47.47682],[10.86039,47.48783],[10.86091,47.5031],[10.89796,47.51889],[10.88474,47.52579],[10.87591,47.53663],[10.81801,47.51827],[10.76906,47.51118],[10.74171,47.53637],[10.69152,47.53818],[10.68138,47.55459],[10.62368,47.55645],[10.60404,47.56591],[10.59094,47.55051],[10.57461,47.53257],[10.49749,47.53323],[10.45379,47.55245],[10.44973,47.52595],[10.47372,47.48376],[10.48173,47.4294],[10.43726,47.39769],[10.43883,47.37823],[10.40182,47.3757],[10.38819,47.35499],[10.3355,47.29986],[10.31537,47.30161],[10.23339,47.26543],[10.2063,47.27276],[10.17121,47.26603],[10.16597,47.2812],[10.1764,47.30106],[10.19147,47.29851],[10.20801,47.31714],[10.19574,47.32624],[10.20375,47.3519],[10.22684,47.37874],[10.2138,47.37801],[10.17295,47.38243],[10.17264,47.36831],[10.14605,47.36483],[10.11991,47.37176],[10.10091,47.35114],[10.08006,47.38546],[10.07789,47.40241],[10.0687,47.40827],[10.06915,47.41717],[10.098,47.43033],[10.08153,47.45287],[10.07032,47.45577],[10.04272,47.4711],[10.03818,47.48609],[10.00388,47.47645],[9.963095,47.52054],[9.96406,47.53336],[9.95568,47.53393],[9.920061,47.52883],[9.912427,47.53307],[9.883375,47.5452],[9.874799,47.52678],[9.81157,47.54853],[9.823461,47.56066],[9.819965,47.57092],[9.823333,47.58247],[9.804215,47.59309],[9.777392,47.59338],[9.754127,47.57006],[9.748009,47.55547],[9.740318,47.54851],[9.736837,47.53271],[9.606187,47.52526],[9.573045,47.53278],[9.512461,47.53246]]]]}}
