{"type":"Feature","properties":{"source":"hh-bdom","attribution":"outline \u00a9 OpenStreetMap contributors, ODbL 1.0, by Geofabrik"},"geometry":{"type":"MultiPolygon","coordinates":[[[[9.753628,53.62566],[9.77294,53.63573],[9.775785,53.61781],[9.798002,53.61211],[9.804096,53.60697],[9.796286,53.60213],[9.821949,53.58777],[9.840488,53.5978],[9.853706,53.60066],[9.867268,53.61715],[9.890871,53.63242],[9.904261,53.65385],[9.918079,53.65746],[9.977217,53.65212],[9.983225,53.6569],[9.991293,53.67653],[9.998245,53.68217],[10.0585,53.6838],[10.06614,53.71149],[10.08038,53.72185],[10.11686,53.71799],[10.16347,53.74369],[10.19763,53.73277],[10.18433,53.70717],[10.16467,53.70347],[10.16004,53.6901],[10.14871,53.67775],[10.1827,53.66692],[10.20278,53.64957],[10.20021,53.64026],[10.2263,53.63426],[10.21943,53.6255],[10.19635,53.60801],[10.20527,53.58201],[10.16424,53.57875],[10.1524,53.56815],[10.1627,53.56223],[10.16081,53.55275],[10.15291,53.54755],[10.15652,53.53939],[10.1742,53.5399],[10.16579,53.52347],[10.1893,53.51551],[10.21162,53.52357],[10.2396,53.49611],[10.30542,53.45715],[10.33196,53.45146],[10.32509,53.43562],[10.30964,53.43071],[10.28801,53.42263],[10.26432,53.41751],[10.25522,53.40697],[10.24544,53.39275],[10.23342,53.39183],[10.19583,53.395],[10.17351,53.39265],[10.15034,53.40319],[10.13454,53.41935],[10.10227,53.42375],[10.08476,53.44421],[10.06416,53.45484],[10.03206,53.43367],[9.984598,53.41265],[9.976187,53.41275],[9.933357,53.41946],[9.917564,53.41245],[9.902716,53.41531],[9.917221,53.43792],[9.90366,53.45361],[9.861511,53.42725],[9.8071,53.46199],[9.796886,53.47017],[9.79929,53.49177],[9.780064,53.49106],[9.761095,53.50791],[9.760666,53.55081],[9.724273,53.5552],[9.733457,53.58277],[9.753628,53.62566]]],[[[8.571911,53.84007],[8.3963,53.88896],[7.967833,54.03923],[8.554228,54.06261],[8.580408,53.84377],[8.571911,53.84007]]]]}}
