{"type":"Feature","properties":{"source":"mv-lod2","attribution":"outline \u00a9 OpenStreetMap contributors, ODbL 1.0, by Geofabrik"},"geometry":{"type":"MultiPolygon","coordinates":[[[[11.87346,54.44185],[11.93115,54.42373],[12.26383,54.60534],[12.92131,54.88071],[13.24175,54.9837],[14.0791,54.76026],[14.29761,54.18108],[14.23244,53.92739],[14.21562,53.91587],[14.21692,53.9105],[14.21655,53.91019],[14.21939,53.90032],[14.22724,53.86794],[14.28713,53.76589],[14.27484,53.72688],[14.27935,53.69862],[14.29,53.68061],[14.28143,53.66715],[14.29,53.66118],[14.29149,53.63644],[14.32318,53.62096],[14.3228,53.56289],[14.31647,53.54828],[14.32616,53.53476],[14.33958,53.50662],[14.35896,53.49598],[14.36958,53.46226],[14.38421,53.45521],[14.38502,53.45387],[14.38513,53.45359],[14.38263,53.42718],[14.42177,53.34259],[14.42292,53.32761],[14.32928,53.30138],[14.27543,53.25696],[14.2081,53.24863],[14.08722,53.25782],[14.11125,53.29682],[14.19022,53.35096],[14.23073,53.39561],[14.22043,53.41854],[14.04652,53.40614],[13.91521,53.41813],[13.89152,53.4302],[13.90183,53.45146],[13.86921,53.47231],[13.83213,53.48805],[13.7851,53.47068],[13.73291,53.47967],[13.69995,53.467],[13.62682,53.40605],[13.57429,53.3993],[13.52898,53.31816],[13.4919,53.28615],[13.45001,53.2839],[13.39645,53.23399],[13.38169,53.2381],[13.35766,53.27076],[13.30135,53.27486],[13.26771,53.25762],[13.23784,53.21282],[13.14137,53.22782],[13.08712,53.19781],[12.98241,53.15686],[12.88216,53.17518],[12.77607,53.18176],[12.72629,53.19431],[12.74551,53.21405],[12.55806,53.24714],[12.44339,53.24632],[12.35687,53.29744],[12.25422,53.32083],[12.06196,53.34584],[12.02591,53.29744],[11.95416,53.27137],[11.86283,53.24591],[11.83124,53.22186],[11.7255,53.21385],[11.6819,53.23707],[11.59607,53.20891],[11.55418,53.12597],[11.50337,53.1167],[11.43574,53.13132],[11.39488,53.10619],[11.29223,53.11381],[11.26493,53.11989],[11.22545,53.13925],[11.18597,53.13174],[11.17584,53.13689],[11.16692,53.15748],[11.18751,53.18012],[11.13533,53.18855],[11.07319,53.2194],[11.00332,53.28112],[10.9877,53.3197],[10.92573,53.33702],[10.83801,53.30134],[10.78806,53.31508],[10.75424,53.32862],[10.73639,53.34082],[10.72317,53.3569],[10.69811,53.36879],[10.6794,53.36582],[10.6279,53.36848],[10.58807,53.36121],[10.59322,53.37667],[10.6097,53.39152],[10.62258,53.45443],[10.64987,53.46475],[10.74154,53.48968],[10.8054,53.52225],[10.8205,53.58099],[10.90685,53.58048],[10.9235,53.62988],[10.94204,53.64881],[10.93311,53.67668],[10.89586,53.70097],[10.84986,53.69813],[10.80763,53.71967],[10.77862,53.74455],[10.75407,53.74699],[10.75167,53.75957],[10.76385,53.78159],[10.76437,53.80035],[10.74514,53.83278],[10.74549,53.85182],[10.77072,53.875],[10.80007,53.87895],[10.8054,53.88552],[10.81741,53.89402],[10.8387,53.9011],[10.86479,53.91425],[10.87818,53.92688],[10.89947,53.95629],[11.10649,54.13026],[11.62281,54.33687],[11.87346,54.44185]]]]}}
