{"type":"Feature","properties":{"source":"ni-dom1","attribution":"outline \u00a9 OpenStreetMap contributors, ODbL 1.0, by Geofabrik"},"geometry":{"type":"MultiPolygon","coordinates":[[[[7.064743,52.37682],[7.052713,52.39603],[7.032324,52.40071],[7.019499,52.41993],[7.006563,52.42734],[6.988511,52.46477],[6.982816,52.4649],[6.969406,52.44535],[6.949588,52.43143],[6.864788,52.44756],[6.846034,52.44746],[6.847286,52.45587],[6.765292,52.45666],[6.690941,52.48386],[6.699093,52.52103],[6.675313,52.5569],[6.712067,52.5521],[6.723401,52.56677],[6.757278,52.5637],[6.713696,52.58763],[6.720514,52.61522],[6.703438,52.62718],[6.739707,52.64743],[6.766851,52.65253],[6.786871,52.65596],[6.787595,52.656],[6.820842,52.65155],[6.833855,52.65604],[6.849533,52.65303],[6.86868,52.65622],[6.875758,52.65624],[6.904544,52.65442],[6.917857,52.65055],[6.917868,52.65053],[6.922203,52.64283],[6.947847,52.64235],[6.974326,52.65073],[7.036791,52.638],[7.046586,52.64661],[7.05742,52.80657],[7.076423,52.85297],[7.171986,52.94524],[7.202583,53.00768],[7.19167,53.05803],[7.190724,53.08496],[7.19379,53.11183],[7.175731,53.12091],[7.172862,53.13896],[7.181116,53.15551],[7.1945,53.17014],[7.203255,53.17816],[7.221107,53.18063],[7.205658,53.18886],[7.210742,53.19644],[7.211749,53.21303],[7.209144,53.22803],[7.190041,53.31078],[7.189693,53.31365],[7.064724,53.30277],[7.009299,53.3122],[6.987552,53.31653],[6.941771,53.3339],[6.926536,53.33851],[6.90495,53.34976],[6.897697,53.35944],[6.896024,53.37002],[6.892805,53.37629],[6.890611,53.38948],[6.888471,53.39602],[6.882248,53.40615],[6.880016,53.42027],[6.889115,53.44091],[6.881046,53.44692],[6.850662,53.4579],[6.841371,53.46068],[6.834612,53.46261],[6.817531,53.46383],[6.798992,53.46536],[6.678314,53.49407],[6.618232,53.53663],[6.539611,53.57559],[6.378935,53.59495],[6.295338,53.75893],[6.391712,53.79642],[6.638486,53.89139],[7.492673,54.23955],[7.715146,54.04649],[8.508908,54.07551],[8.782882,53.97063],[8.995055,53.87925],[9.047413,53.88542],[9.196104,53.8837],[9.292099,53.8728],[9.349022,53.83896],[9.427643,53.75226],[9.446354,53.7349],[9.493136,53.7199],[9.52225,53.69615],[9.560805,53.62061],[9.641062,53.58512],[9.698108,53.5641],[9.776716,53.55601],[9.774656,53.54255],[9.77148,53.52995],[9.779291,53.52526],[9.782638,53.51832],[9.785728,53.5003],[9.784269,53.49417],[9.792166,53.49545],[9.804697,53.49412],[9.802465,53.4716],[9.85877,53.43955],[9.867611,53.44543],[9.875164,53.44502],[9.892502,53.45688],[9.903145,53.46025],[9.922714,53.44605],[9.92944,53.43399],[9.944,53.43132],[9.990864,53.42171],[9.993954,53.42641],[10.00889,53.43071],[10.02365,53.4349],[10.01198,53.44288],[10.0494,53.46588],[10.08013,53.45607],[10.09609,53.44676],[10.10828,53.42928],[10.11858,53.4258],[10.13901,53.42345],[10.1469,53.41823],[10.15772,53.40523],[10.17403,53.39858],[10.19651,53.40073],[10.23016,53.39612],[10.24063,53.40002],[10.25351,53.41761],[10.28183,53.42539],[10.30466,53.43531],[10.31719,53.43306],[10.3323,53.42621],[10.36972,53.42917],[10.39066,53.42017],[10.40028,53.4126],[10.44113,53.39612],[10.47152,53.38783],[10.49933,53.37596],[10.5225,53.37288],[10.55855,53.36991],[10.56988,53.36366],[10.58344,53.36192],[10.59442,53.36551],[10.61176,53.37206],[10.63099,53.3735],[10.6818,53.36981],[10.69845,53.37432],[10.73553,53.35475],[10.74051,53.34399],[10.7666,53.34082],[10.76403,53.33303],[10.83784,53.31242],[10.8787,53.3361],[10.91869,53.35055],[10.99079,53.33477],[11.00864,53.30965],[11.084,53.22166],[11.19799,53.18516],[11.20348,53.17579],[11.18511,53.15933],[11.17756,53.15552],[11.18854,53.13699],[11.20314,53.14368],[11.21584,53.14759],[11.24399,53.1408],[11.27232,53.12164],[11.27369,53.10021],[11.29583,53.08485],[11.3142,53.07784],[11.33223,53.06113],[11.34544,53.05556],[11.3772,53.06598],[11.40879,53.07701],[11.44707,53.08093],[11.46629,53.07794],[11.50852,53.05153],[11.54938,53.05504],[11.5874,53.03662],[11.60731,53.03765],[11.55762,52.99536],[11.50715,52.93923],[11.41308,52.90393],[11.35849,52.89047],[11.29566,52.87224],[11.24004,52.877],[11.1676,52.90103],[11.10958,52.89358],[11.00246,52.90807],[10.99045,52.88343],[10.94547,52.85213],[10.89088,52.84384],[10.77484,52.83845],[10.75973,52.78345],[10.79441,52.75209],[10.83424,52.71716],[10.93071,52.61264],[10.9417,52.62202],[10.96744,52.6291],[10.98221,52.62452],[10.97912,52.60305],[10.94547,52.57802],[10.94822,52.55193],[11.01654,52.49553],[10.93758,52.47295],[10.9544,52.4489],[10.9853,52.42545],[11.02993,52.39551],[11.0804,52.37749],[11.0725,52.35442],[11.05911,52.34772],[11.03714,52.34226],[11.00521,52.34037],[11.03851,52.311],[11.0416,52.30113],[11.09207,52.2278],[11.06358,52.15161],[11.04778,52.13286],[11.01448,52.12168],[10.97603,52.08816],[10.97706,52.07444],[10.96916,52.05355],[10.87784,52.05418],[10.84213,52.04573],[10.69313,52.0451],[10.65742,52.03982],[10.65811,52.02314],[10.62996,52.00729],[10.60163,52.00528],[10.57159,52.00475],[10.58885,51.98631],[10.59013,51.97875],[10.60576,51.97917],[10.64386,51.96341],[10.65485,51.95865],[10.64987,51.95336],[10.6188,51.93993],[10.62035,51.92257],[10.64026,51.91611],[10.65262,51.90647],[10.65142,51.88709],[10.63511,51.87183],[10.59185,51.84553],[10.59236,51.83334],[10.57863,51.81042],[10.5867,51.79991],[10.58996,51.78876],[10.58275,51.78133],[10.59202,51.76901],[10.63065,51.75934],[10.64936,51.72405],[10.66343,51.71778],[10.67184,51.71076],[10.67562,51.69778],[10.66841,51.68128],[10.70669,51.63922],[10.65176,51.60661],[10.63665,51.60267],[10.64095,51.58592],[10.66824,51.58048],[10.66824,51.57451],[10.65966,51.55562],[10.64695,51.5569],[10.63545,51.56064],[10.60284,51.5775],[10.5891,51.56608],[10.56147,51.5553],[10.51889,51.55231],[10.50636,51.55584],[10.47409,51.5776],[10.45074,51.58208],[10.42894,51.59072],[10.40869,51.5856],[10.3795,51.58422],[10.38294,51.56171],[10.37521,51.55733],[10.3692,51.54153],[10.34311,51.51814],[10.30397,51.50628],[10.30397,51.49357],[10.23462,51.46952],[10.19051,51.46641],[10.17626,51.44588],[10.156,51.42929],[10.14158,51.4279],[10.0882,51.43079],[10.07961,51.42051],[10.07275,51.41698],[10.01249,51.41837],[10.00631,51.40552],[9.946747,51.37875],[9.927177,51.3736],[9.924259,51.37767],[9.921856,51.39664],[9.906921,51.40724],[9.902286,51.4158],[9.881515,51.4021],[9.856968,51.40906],[9.853535,51.40167],[9.861946,51.39578],[9.871044,51.37189],[9.848213,51.37028],[9.837742,51.38421],[9.830875,51.40285],[9.809418,51.40917],[9.801178,51.40649],[9.807186,51.38785],[9.800663,51.38475],[9.716549,51.36224],[9.774055,51.33866],[9.777145,51.3246],[9.770279,51.30615],[9.733028,51.29348],[9.688911,51.30636],[9.677839,51.3098],[9.675608,51.3142],[9.669771,51.3165],[9.66299,51.31114],[9.627285,51.31119],[9.603338,51.32444],[9.566517,51.33962],[9.558363,51.34654],[9.547377,51.35903],[9.550381,51.36294],[9.557762,51.36171],[9.564629,51.36224],[9.569435,51.36396],[9.570465,51.36658],[9.574671,51.37076],[9.558706,51.37435],[9.556217,51.37757],[9.556131,51.38132],[9.562054,51.38871],[9.576988,51.40287],[9.590034,51.40424],[9.639473,51.41655],[9.623165,51.44309],[9.628315,51.46043],[9.641533,51.46663],[9.638958,51.47219],[9.624367,51.47507],[9.613209,51.48363],[9.605141,51.49442],[9.581451,51.51729],[9.602995,51.56336],[9.62677,51.58358],[9.636555,51.58614],[9.648399,51.58219],[9.683075,51.56853],[9.687195,51.57824],[9.670372,51.58646],[9.637241,51.60736],[9.632606,51.6242],[9.6175,51.63208],[9.605655,51.62676],[9.57098,51.62324],[9.557075,51.62846],[9.536133,51.6307],[9.524116,51.62548],[9.503002,51.62569],[9.487896,51.63379],[9.492531,51.65595],[9.467296,51.65254],[9.450302,51.64529],[9.440346,51.64913],[9.420261,51.64572],[9.382367,51.64548],[9.378762,51.64841],[9.372797,51.64971],[9.376488,51.65818],[9.378204,51.66707],[9.384556,51.67101],[9.385328,51.69086],[9.397945,51.69804],[9.39949,51.70517],[9.390907,51.7115],[9.385843,51.71825],[9.373226,51.74319],[9.383182,51.75913],[9.419145,51.77889],[9.422235,51.77846],[9.430818,51.78505],[9.446354,51.79407],[9.434423,51.79678],[9.438629,51.80336],[9.429531,51.80432],[9.424252,51.81374],[9.437942,51.83069],[9.42996,51.84262],[9.450817,51.85137],[9.458885,51.85677],[9.405155,51.85455],[9.36018,51.86261],[9.334431,51.85264],[9.319496,51.85444],[9.319496,51.85677],[9.333744,51.85635],[9.337177,51.87988],[9.339065,51.90626],[9.330311,51.91494],[9.287739,51.91865],[9.277267,51.92532],[9.260788,51.94564],[9.271259,51.96944],[9.220791,51.97156],[9.213238,51.95961],[9.208774,51.95897],[9.183369,51.96511],[9.171696,51.98319],[9.17736,52.00327],[9.168949,52.04763],[9.17942,52.08035],[9.153499,52.09037],[9.131698,52.09301],[9.13187,52.1084],[9.155044,52.11757],[9.144401,52.13264],[9.128609,52.13433],[9.124832,52.13707],[9.107323,52.13138],[9.083118,52.13538],[9.065437,52.13992],[9.015484,52.13149],[9.010334,52.13433],[9.008446,52.17256],[8.982525,52.1953],[8.990078,52.19772],[9.013767,52.19646],[9.042778,52.19256],[9.041061,52.20371],[9.035396,52.21791],[9.035396,52.22517],[9.042435,52.22706],[9.052391,52.2216],[9.063721,52.22685],[9.074879,52.23274],[9.053764,52.23705],[9.034881,52.24798],[9.007072,52.25156],[8.970337,52.26227],[8.960509,52.27898],[8.982353,52.2857],[8.982868,52.29578],[8.98716,52.31341],[8.996601,52.32674],[9.027157,52.34761],[9.056682,52.34111],[9.057197,52.3473],[9.070415,52.35013],[9.094105,52.37298],[9.092388,52.3866],[9.111442,52.39865],[9.121399,52.41938],[9.107838,52.42053],[9.103546,52.42692],[9.09256,52.4422],[9.102516,52.45873],[9.13084,52.48289],[9.109897,52.48445],[9.073677,52.49564],[9.057541,52.49585],[9.046211,52.48038],[9.018059,52.45643],[8.992052,52.449],[8.989563,52.43173],[8.937206,52.40032],[8.852749,52.38796],[8.786831,52.39729],[8.745632,52.38629],[8.70203,52.39341],[8.702888,52.4221],[8.701343,52.44419],[8.695507,52.48759],[8.69894,52.50055],[8.669414,52.5158],[8.65139,52.52907],[8.558006,52.49773],[8.505993,52.51016],[8.483505,52.49564],[8.465824,52.49177],[8.461876,52.47285],[8.456898,52.46061],[8.42308,52.4422],[8.360081,52.4421],[8.33313,52.45224],[8.3115,52.44387],[8.324032,52.42671],[8.32901,52.40252],[8.394069,52.38576],[8.441276,52.36585],[8.457928,52.32968],[8.47372,52.31478],[8.465652,52.30218],[8.468399,52.267],[8.470287,52.24683],[8.462219,52.22917],[8.453808,52.21665],[8.456039,52.20256],[8.496895,52.19193],[8.523502,52.18709],[8.480415,52.15656],[8.464279,52.15256],[8.445225,52.14908],[8.412266,52.13496],[8.408317,52.12453],[8.414154,52.11399],[8.399906,52.10809],[8.39098,52.1064],[8.370724,52.10819],[8.361625,52.1161],[8.325233,52.12316],[8.314075,52.11547],[8.280086,52.12569],[8.223266,52.10408],[8.206444,52.08889],[8.196487,52.07149],[8.178978,52.07064],[8.151855,52.07307],[8.095722,52.05576],[8.029461,52.06389],[7.982769,52.03401],[7.914276,52.05027],[7.88063,52.08457],[7.971268,52.11831],[8.004741,52.11778],[7.994957,52.1515],[7.999935,52.16077],[8.016243,52.16414],[8.009205,52.17425],[7.973842,52.17046],[7.93333,52.1753],[7.905178,52.18835],[7.897281,52.20824],[7.912559,52.22391],[7.926636,52.23978],[7.920627,52.25114],[7.921486,52.26291],[7.929039,52.26721],[7.953586,52.27257],[7.928352,52.28633],[7.929897,52.30208],[7.951183,52.30743],[7.986202,52.30459],[7.98809,52.30795],[7.977619,52.30984],[7.959251,52.3237],[7.94878,52.33167],[7.930755,52.36019],[7.89402,52.37749],[7.841835,52.36742],[7.804584,52.37036],[7.723217,52.39886],[7.711544,52.40001],[7.700043,52.43299],[7.684421,52.45528],[7.667084,52.45622],[7.604084,52.47264],[7.574043,52.43226],[7.608204,52.42189],[7.606315,52.41289],[7.586059,52.40252],[7.584686,52.3756],[7.562027,52.36816],[7.531643,52.36669],[7.481346,52.34614],[7.439461,52.33146],[7.429161,52.31341],[7.351742,52.28234],[7.299557,52.26248],[7.155533,52.26438],[7.123947,52.25996],[7.105923,52.24157],[7.063351,52.23947],[7.03949,52.25565],[7.023656,52.27514],[7.023137,52.2777],[7.022838,52.29095],[7.033825,52.31236],[7.054939,52.33943],[7.069015,52.35317],[7.067985,52.3735],[7.064743,52.37682]]]]}}
