{"type":"Feature","properties":{"source":"nlcd","attribution":"outline \u00a9 OpenStreetMap contributors, ODbL 1.0, by Geofabrik"},"geometry":{"type":"MultiPolygon","coordinates":[[[[-125.9201,31.86887],[-133.0637,49.45605],[-126.7388,49.27953],[-125.7377,48.88595],[-124.9267,48.52386],[-124.6114,48.50045],[-123.8791,48.30351],[-123.5778,48.25107],[-123.2639,48.29759],[-123.1898,48.44641],[-123.2771,48.6989],[-123.0208,48.77277],[-123.0246,48.82635],[-123.3626,49.01136],[-104.0475,49.00168],[-104.0355,44.99604],[-104.0563,44.99586],[-104.0522,41.00278],[-102.0466,41.00388],[-102.0355,36.99129],[-102.9994,36.99779],[-103.0004,36.49718],[-103.0376,36.49754],[-103.033,34.34069],[-103.0597,31.99562],[-106.6127,31.99769],[-106.6191,31.97417],[-106.6109,31.94995],[-106.6248,31.92745],[-106.612,31.92192],[-106.6099,31.91881],[-106.644,31.89733],[-106.6326,31.89002],[-106.6274,31.88315],[-106.6346,31.87152],[-106.6249,31.8605],[-106.6122,31.84986],[-106.5993,31.84723],[-106.6018,31.82652],[-106.5912,31.82586],[-106.5771,31.81312],[-106.5682,31.81573],[-106.5452,31.80887],[-106.524,31.7918],[-106.5212,31.78318],[-108.2022,31.7797],[-108.2013,31.33043],[-109.5576,31.3315],[-110.9211,31.33106],[-110.9626,31.33033],[-111.0741,31.32659],[-114.8224,32.49577],[-114.8222,32.55463],[-114.8126,32.6268],[-114.7781,32.63682],[-114.7576,32.66248],[-114.7271,32.71506],[-115.3424,32.67262],[-115.5683,32.65614],[-116.6072,32.57662],[-116.9223,32.55058],[-117.1244,32.53384],[-117.242,32.52511],[-125.9201,31.86887]]],[[[-104.053,49.00349],[-95.18458,49.02067],[-95.18433,49.40714],[-94.74314,49.35585],[-94.6486,48.77774],[-94.14963,48.69807],[-93.77147,48.62175],[-93.76096,48.54183],[-93.52986,48.54878],[-93.52461,48.60786],[-93.23574,48.66686],[-92.51618,48.59744],[-92.36386,48.27686],[-92.27982,48.39208],[-91.90691,48.36068],[-91.46047,48.09477],[-90.86171,48.28385],[-90.69889,48.13334],[-90.06953,48.14727],[-89.32805,48.01402],[-88.38264,48.35021],[-84.84942,46.89066],[-84.74081,46.64774],[-84.53647,46.47164],[-84.47531,46.45974],[-84.44234,46.49817],[-84.37474,46.51169],[-84.3444,46.51062],[-84.32329,46.50303],[-84.28855,46.49543],[-84.26612,46.49661],[-84.24872,46.51074],[-84.23189,46.53623],[-84.16935,46.5471],[-84.07469,46.5175],[-84.10395,46.26941],[-83.91807,46.07276],[-83.79072,46.15031],[-83.53695,46.14629],[-83.18576,45.69387],[-82.46722,45.36835],[-82.38232,44.88212],[-82.06913,43.59196],[-82.41389,43.00063],[-82.42028,42.98741],[-82.40945,42.97784],[-82.42614,42.94549],[-82.4496,42.92633],[-82.45998,42.88799],[-82.46269,42.76027],[-82.4875,42.69862],[-82.50239,42.66612],[-82.5143,42.60539],[-82.82222,42.37166],[-82.94061,42.34539],[-82.98798,42.32872],[-83.02915,42.32497],[-83.0596,42.31704],[-83.07765,42.30495],[-83.09852,42.282],[-83.12191,42.23138],[-83.11713,42.12702],[-83.14475,42.0396],[-83.05735,41.86716],[-82.80836,41.76026],[-82.63504,41.70539],[-82.30042,41.75045],[-81.385,42.20145],[-80.50521,42.33584],[-80.51674,41.2276],[-80.5164,40.63701],[-80.58025,40.61082],[-80.60085,40.6232],[-80.62609,40.61708],[-80.66505,40.58176],[-80.62574,40.53781],[-80.59021,40.47294],[-80.60944,40.40134],[-80.62883,40.3931],[-80.60549,40.37218],[-80.59794,40.31553],[-80.6163,40.26512],[-80.6654,40.19959],[-80.69973,40.15159],[-80.70213,40.1004],[-80.73552,40.07866],[-80.72788,40.04102],[-80.73544,40.00237],[-80.73544,39.97212],[-80.75981,39.95133],[-80.75397,39.92843],[-80.75054,39.90737],[-80.77183,39.905],[-80.78762,39.91448],[-80.8017,39.91579],[-80.80582,39.90605],[-80.78453,39.87971],[-80.78831,39.86285],[-80.82058,39.84598],[-80.81715,39.8262],[-80.81989,39.79904],[-80.8635,39.76501],[-80.83225,39.72831],[-80.82367,39.71194],[-80.83569,39.69847],[-80.86041,39.69187],[-80.86453,39.65276],[-80.86796,39.62738],[-80.88684,39.61468],[-80.92495,39.61548],[-81.03275,39.539],[-81.09043,39.49556],[-81.13335,39.44176],[-81.16184,39.43832],[-81.19308,39.41551],[-81.20991,39.385],[-81.27789,39.37889],[-81.34998,39.33908],[-81.38397,39.33801],[-81.39942,39.35129],[-81.41762,39.39269],[-81.45573,39.40596],[-81.50448,39.36616],[-81.54327,39.35102],[-81.5546,39.32633],[-81.56834,39.26203],[-81.61022,39.27187],[-81.67099,39.27187],[-81.68747,39.22374],[-81.7448,39.18011],[-81.73391,39.08781],[-81.80592,39.06052],[-81.7606,39.02105],[-81.74824,38.91882],[-81.81484,38.90813],[-81.88934,38.86751],[-81.93329,38.88221],[-81.93398,38.89932],[-81.90582,38.93191],[-81.93192,38.97943],[-81.98135,38.99144],[-82.00058,39.02212],[-82.03045,39.02372],[-82.04144,38.99704],[-82.08778,38.97009],[-82.12967,38.89611],[-82.13688,38.85067],[-82.14684,38.82821],[-82.20451,38.79343],[-82.17705,38.71525],[-82.164,38.59111],[-82.27936,38.58253],[-82.30616,38.442],[-82.38526,38.42918],[-82.40729,38.43436],[-82.53612,38.40077],[-82.559,38.40076],[-82.58246,38.40642],[-82.59961,38.42445],[-82.60682,38.45802],[-82.61675,38.47215],[-82.6551,38.49051],[-82.67811,38.51382],[-82.69751,38.53958],[-82.72774,38.55052],[-82.75556,38.55366],[-82.78458,38.5537],[-82.81374,38.56108],[-82.85449,38.5938],[-82.86881,38.6592],[-82.88203,38.69532],[-82.89084,38.75117],[-82.96023,38.72454],[-83.02412,38.71852],[-83.04615,38.69102],[-83.10232,38.66522],[-83.12206,38.64255],[-83.14564,38.61498],[-83.18026,38.61612],[-83.20974,38.61313],[-83.25109,38.62247],[-83.28948,38.59397],[-83.30931,38.59579],[-83.32201,38.60687],[-83.33095,38.63128],[-83.355,38.64948],[-83.4004,38.66105],[-83.46243,38.67074],[-83.52338,38.69789],[-83.57781,38.68235],[-83.62578,38.67151],[-83.63839,38.63859],[-83.66302,38.61827],[-83.71114,38.63903],[-83.75795,38.6452],[-83.78163,38.6637],[-83.79347,38.69936],[-83.8381,38.71124],[-83.86115,38.75171],[-83.88709,38.76139],[-83.926,38.76798],[-83.96379,38.78161],[-84.06135,38.76403],[-84.12717,38.78117],[-84.16569,38.79216],[-84.20686,38.79524],[-84.23562,38.82205],[-84.23562,38.8809],[-84.24802,38.90241],[-84.29652,38.96076],[-84.31251,39.00857],[-84.3439,39.03308],[-84.38112,39.04096],[-84.41947,39.04709],[-84.43413,39.05629],[-84.43413,39.07205],[-84.43639,39.09744],[-84.4471,39.11101],[-84.46515,39.11932],[-84.47868,39.11451],[-84.4956,39.09788],[-84.51421,39.08869],[-84.54579,39.09613],[-84.55989,39.08475],[-84.59601,39.07093],[-84.6208,39.06899],[-84.64505,39.08344],[-84.68848,39.09482],[-84.70032,39.11276],[-84.74713,39.14295],[-84.78209,39.11407],[-84.82383,39.09569],[-84.88616,39.05851],[-84.86521,39.03368],[-84.82668,38.98492],[-84.82668,38.9558],[-84.87087,38.91977],[-84.85532,38.90696],[-84.79364,38.89582],[-84.78042,38.87524],[-84.79033,38.85552],[-84.82338,38.83149],[-84.79774,38.784],[-84.82699,38.77955],[-84.88983,38.78966],[-84.93529,38.77208],[-84.99056,38.77321],[-85.12078,38.69751],[-85.19678,38.6743],[-85.25626,38.72674],[-85.39725,38.7276],[-85.41767,38.73208],[-85.43555,38.71881],[-85.45095,38.69512],[-85.43585,38.66793],[-85.42739,38.61156],[-85.40671,38.55164],[-85.42049,38.52325],[-85.46899,38.50251],[-85.49409,38.45983],[-85.56092,38.44865],[-85.60885,38.43054],[-85.62846,38.36938],[-85.65503,38.30885],[-85.6974,38.28239],[-85.75323,38.26335],[-85.7865,38.28416],[-85.82767,38.27265],[-85.83809,38.23339],[-85.8553,38.21507],[-85.89196,38.18493],[-85.90606,38.14192],[-85.89929,38.09533],[-85.90888,38.06959],[-85.9117,38.0425],[-85.92927,38.01193],[-85.96584,37.9994],[-86.00757,37.9954],[-86.04291,37.95102],[-86.0651,37.96651],[-86.08371,37.99852],[-86.12713,38.01229],[-86.1683,38.00518],[-86.25515,38.03939],[-86.28391,38.07314],[-86.28408,38.13422],[-86.38204,38.11885],[-86.43449,38.05671],[-86.47058,38.03895],[-86.51344,38.0385],[-86.51908,37.97273],[-86.5016,37.92871],[-86.5298,37.91269],[-86.59071,37.9167],[-86.59353,37.85839],[-86.63667,37.83777],[-86.67135,37.8388],[-86.65951,37.91047],[-86.71308,37.88688],[-86.74636,37.89934],[-86.82841,37.98982],[-86.90652,37.93627],[-87.00589,37.91397],[-87.0509,37.82454],[-87.0768,37.78945],[-87.10959,37.77761],[-87.13368,37.78465],[-87.16486,37.83439],[-87.23734,37.85012],[-87.40908,37.93965],[-87.44062,37.94104],[-87.50909,37.90309],[-87.54509,37.91001],[-87.593,37.96714],[-87.62007,37.91804],[-87.58263,37.89205],[-87.58533,37.86107],[-87.60699,37.83043],[-87.63867,37.82027],[-87.68459,37.82758],[-87.68369,37.85751],[-87.67151,37.89526],[-87.70264,37.89454],[-87.76715,37.87531],[-87.81716,37.87233],[-87.84295,37.87888],[-87.87769,37.91804],[-87.90113,37.92334],[-87.93634,37.88386],[-87.90656,37.84468],[-87.89934,37.83542],[-87.9025,37.80512],[-87.93316,37.78701],[-87.94807,37.76911],[-87.97162,37.77622],[-87.99725,37.79407],[-88.02744,37.79603],[-88.05283,37.73783],[-88.10802,37.70865],[-88.1326,37.68668],[-88.15136,37.65787],[-88.13891,37.60702],[-88.08512,37.56094],[-88.05371,37.5045],[-88.07398,37.46765],[-88.28282,37.44177],[-88.31917,37.42835],[-88.35155,37.39488],[-88.41279,37.41348],[-88.44867,37.40469],[-88.4802,37.33395],[-88.50399,37.27016],[-88.44055,37.21755],[-88.41694,37.13627],[-88.46207,37.06128],[-88.50752,37.05739],[-88.55138,37.06456],[-88.61414,37.1059],[-88.68552,37.1326],[-88.73046,37.13681],[-88.7939,37.17333],[-88.90405,37.21404],[-88.97008,37.22398],[-89.02125,37.20843],[-89.07148,37.17052],[-89.0891,37.13119],[-89.13404,37.09465],[-89.17458,37.04262],[-89.16861,37.01647],[-89.11642,36.98774],[-89.0891,36.96521],[-89.12787,36.84402],[-89.16224,36.82991],[-89.16576,36.80522],[-89.12259,36.79675],[-89.10833,36.75545],[-89.1358,36.74452],[-89.17369,36.75017],[-89.1922,36.72334],[-89.16312,36.68236],[-89.14814,36.65974],[-89.18779,36.62156],[-89.20454,36.56779],[-89.2671,36.55718],[-89.33055,36.62439],[-89.36187,36.62048],[-89.41161,36.48282],[-89.46713,36.4488],[-89.50414,36.46723],[-89.51417,36.44215],[-89.50061,36.35022],[-89.4964,36.26298],[-89.55942,36.21214],[-89.55102,36.13413],[-89.70426,35.99414],[-90.3946,35.98507],[-90.36138,36.0564],[-90.13814,36.34409],[-90.17033,36.49196],[-94.62179,36.49472],[-94.62284,36.99559],[-102.0434,36.99136],[-102.0568,40.99739],[-104.0563,40.99929],[-104.0588,44.99813],[-104.0417,44.99864],[-104.053,49.00349]]],[[[-70.34526,39.65484],[-75.00187,38.74287],[-75.35554,39.27083],[-75.57443,39.46128],[-75.54245,39.56827],[-75.57879,39.6112],[-75.47522,39.76091],[-75.41599,39.80089],[-75.46234,39.82251],[-75.5195,39.8357],[-75.57804,39.83715],[-75.63143,39.82937],[-75.69254,39.80656],[-75.74026,39.77081],[-75.77253,39.72026],[-76.9988,39.71769],[-77.46014,39.71841],[-78.17597,39.72079],[-79.47647,39.71986],[-80.5224,39.71881],[-80.52137,40.64255],[-80.52275,42.32885],[-78.95637,42.8378],[-78.9087,42.90282],[-78.90733,42.91357],[-78.91368,42.93506],[-78.93397,42.95207],[-78.96709,42.95554],[-79.02215,42.98025],[-79.02958,43.01998],[-79.00854,43.05761],[-79.07725,43.07621],[-79.07806,43.0817],[-79.06436,43.09681],[-79.05952,43.11095],[-79.07295,43.12112],[-79.0555,43.13014],[-79.04556,43.14151],[-79.05685,43.17677],[-79.05147,43.20008],[-79.05872,43.20908],[-79.05926,43.23805],[-79.05791,43.25174],[-79.07537,43.26426],[-79.21691,43.45496],[-78.6726,43.65219],[-76.77796,43.68476],[-76.44562,44.09844],[-76.31516,44.19993],[-76.16856,44.28355],[-76.00719,44.35282],[-75.95467,44.34988],[-75.82695,44.43231],[-75.81631,44.48499],[-75.50285,44.71039],[-75.313,44.83737],[-75.1355,44.91838],[-74.98272,44.98435],[-74.83514,45.01766],[-74.77467,45.01555],[-74.75132,44.99807],[-74.67098,45.00948],[-74.49098,45.00335],[-74.14879,44.99345],[-73.85216,45.00462],[-73.0632,45.01919],[-72.64092,45.01724],[-72.09933,45.00732],[-71.50344,45.01529],[-71.51067,45.04765],[-71.50015,45.0707],[-71.43547,45.1264],[-71.44171,45.14015],[-71.4101,45.20853],[-71.45022,45.23643],[-71.44412,45.24057],[-71.38413,45.24537],[-71.36796,45.26879],[-71.27727,45.31002],[-71.22102,45.25977],[-71.13868,45.24907],[-71.1013,45.30181],[-71.01048,45.34961],[-70.94576,45.33973],[-70.91496,45.31316],[-70.86241,45.23308],[-70.81129,45.37722],[-70.83091,45.3956],[-70.79632,45.43601],[-70.75069,45.42932],[-70.6472,45.3819],[-70.63638,45.41847],[-70.75058,45.49504],[-70.6778,45.59002],[-70.55626,45.66996],[-70.39988,45.73746],[-70.42253,45.79506],[-70.37189,45.83645],[-70.26426,45.89825],[-70.26667,45.95748],[-70.31954,45.95998],[-70.3216,46.01985],[-70.31456,46.07192],[-70.25225,46.15154],[-70.30392,46.18019],[-70.21311,46.33863],[-70.09466,46.41218],[-70.05896,46.41952],[-69.99939,46.69584],[-69.75185,46.94358],[-69.22588,47.46222],[-69.17636,47.45822],[-69.03757,47.43087],[-69.0271,47.40602],[-69.03743,47.33545],[-69.04839,47.29658],[-69.03122,47.2437],[-68.88582,47.18761],[-68.81596,47.2191],[-68.58102,47.29054],[-68.48328,47.30298],[-68.39456,47.29167],[-68.38233,47.36062],[-68.24512,47.36315],[-68.15028,47.32784],[-67.95124,47.19959],[-67.85645,47.10089],[-67.78444,47.06918],[-67.77535,45.94518],[-67.74462,45.91724],[-67.79285,45.86324],[-67.75148,45.8239],[-67.78221,45.69275],[-67.71973,45.69155],[-67.55768,45.60419],[-67.4176,45.61044],[-67.40627,45.50153],[-67.47562,45.4676],[-67.40593,45.37072],[-67.47185,45.27634],[-67.33992,45.12889],[-67.30156,45.16842],[-67.2916,45.19038],[-67.27916,45.19389],[-67.13931,45.16135],[-66.95843,44.91438],[-66.9754,44.86001],[-66.87164,44.79019],[-66.93766,44.21031],[-70.34526,39.65484]]],[[[-81.60627,24.20031],[-96.86662,25.94066],[-97.14489,25.94631],[-97.34196,25.90957],[-97.35054,25.86386],[-97.36839,25.83203],[-97.40788,25.83111],[-97.46092,25.85212],[-97.46264,25.87374],[-97.475,25.87343],[-97.48632,25.87637],[-97.50023,25.87946],[-97.498,25.89513],[-97.51109,25.88509],[-97.52302,25.8844],[-97.54778,25.91868],[-97.58726,25.92949],[-97.61387,25.96592],[-97.66897,26.01483],[-97.78158,26.02362],[-97.86518,26.04984],[-97.9335,26.04953],[-97.95033,26.05971],[-97.96148,26.04907],[-98.0698,26.03226],[-98.19099,26.04907],[-98.2509,26.07066],[-98.26773,26.08546],[-98.27313,26.09433],[-98.28936,26.10211],[-98.30481,26.09988],[-98.33227,26.12554],[-98.34292,26.14912],[-98.38686,26.1539],[-98.47767,26.19657],[-98.58341,26.23076],[-98.59663,26.24955],[-98.66495,26.23015],[-98.701,26.26155],[-98.7283,26.27233],[-98.81433,26.3472],[-98.89687,26.35004],[-98.94733,26.36742],[-98.98321,26.38818],[-99.01686,26.38956],[-99.02389,26.40448],[-99.03694,26.41047],[-99.05565,26.39571],[-99.08638,26.39356],[-99.11917,26.4323],[-99.10011,26.47949],[-99.17633,26.54124],[-99.23607,26.72813],[-99.3346,26.87523],[-99.45236,27.01601],[-99.46129,27.06891],[-99.45168,27.22304],[-99.54746,27.31093],[-99.49099,27.41079],[-99.49957,27.43806],[-99.49554,27.45604],[-99.48644,27.47112],[-99.48197,27.48254],[-99.49004,27.49381],[-99.50249,27.49875],[-99.53073,27.49388],[-99.52892,27.5292],[-99.51748,27.56426],[-99.5321,27.57859],[-99.54549,27.60445],[-99.57999,27.59974],[-99.66951,27.63183],[-99.72599,27.66346],[-99.75758,27.70876],[-99.84993,27.76573],[-99.88306,27.80067],[-100.0051,27.99622],[-100.2921,28.24935],[-100.3612,28.38883],[-100.354,28.43034],[-100.5081,28.66137],[-100.5137,28.71393],[-100.569,28.81072],[-100.6221,28.89428],[-100.6506,28.91232],[-100.6691,29.07327],[-100.779,29.16266],[-100.7872,29.21211],[-100.8432,29.25945],[-100.8826,29.27742],[-100.8991,29.30526],[-100.9427,29.33071],[-100.9487,29.34223],[-100.9632,29.34388],[-101.0162,29.36841],[-101.0516,29.41986],[-101.0794,29.45335],[-101.1525,29.4683],[-101.2716,29.52268],[-101.4632,29.75215],[-102.646,29.72279],[-102.8539,29.21441],[-103.1254,28.94289],[-103.4091,28.99972],[-103.8944,29.2527],[-104.1762,29.37554],[-104.2623,29.4812],[-104.3856,29.53314],[-104.4062,29.56987],[-104.4807,29.60152],[-104.5346,29.64151],[-104.6207,29.8192],[-104.7201,29.97058],[-104.724,30.21437],[-104.87,30.38295],[-104.9222,30.55783],[-105.1244,30.72546],[-105.4049,30.84358],[-105.4363,30.89176],[-105.58,30.99291],[-105.6394,31.08793],[-105.7716,31.16111],[-105.9487,31.31874],[-105.9597,31.34836],[-106.0091,31.38002],[-106.1149,31.40171],[-106.2148,31.46469],[-106.2556,31.53992],[-106.2826,31.55929],[-106.3062,31.6113],[-106.308,31.6224],[-106.3355,31.65864],[-106.3535,31.6956],[-106.3607,31.70017],[-106.3779,31.71661],[-106.3815,31.72999],[-106.4089,31.74522],[-106.4228,31.75198],[-106.4385,31.75408],[-106.4516,31.76294],[-106.4647,31.75923],[-106.4691,31.75094],[-106.4866,31.74484],[-106.5138,31.76209],[-106.5296,31.78038],[-106.578,31.808],[-106.6058,31.82332],[-106.6172,31.84461],[-106.6374,31.86429],[-106.6346,31.88203],[-106.6398,31.88891],[-106.6494,31.89672],[-106.6297,31.93701],[-106.6448,31.98828],[-106.6206,32.00211],[-104.8435,32.00302],[-103.0696,32.00371],[-103.07,32.61191],[-103.0662,33.15595],[-103.0475,34.35888],[-103.0447,36.5026],[-103.0047,36.50329],[-103.0082,37.00529],[-102.0371,36.99746],[-94.6105,37.00366],[-94.61153,36.50789],[-90.14552,36.50413],[-90.11868,36.41617],[-90.06355,36.40337],[-90.05073,36.29879],[-90.11119,36.2347],[-90.21836,36.13118],[-90.28819,36.08996],[-90.35779,36.00298],[-89.71292,36.00613],[-89.68367,36.09771],[-89.62196,36.12211],[-89.60158,36.15746],[-89.71831,36.23597],[-89.70075,36.25723],[-89.54645,36.26941],[-89.6259,36.30381],[-89.62393,36.34084],[-89.52938,36.36252],[-89.55418,36.42851],[-89.53869,36.47281],[-89.58125,36.5521],[-89.55334,36.59265],[-89.49984,36.58479],[-89.45051,36.56095],[-89.47435,36.46359],[-89.43131,36.48968],[-89.38091,36.62996],[-89.32464,36.63809],[-89.25397,36.57353],[-89.22145,36.57794],[-89.207,36.63223],[-89.16892,36.66489],[-89.20438,36.70701],[-89.20455,36.74333],[-89.1663,36.76857],[-89.12493,36.77172],[-89.18086,36.79365],[-89.18456,36.842],[-89.13509,36.85558],[-89.10945,36.96626],[-89.15778,36.99141],[-89.18699,37.01752],[-89.18246,37.06934],[-89.14323,37.10198],[-89.1042,37.15003],[-89.0682,37.18988],[-89.0009,37.22882],[-88.93856,37.23339],[-88.89354,37.21979],[-88.79665,37.18713],[-88.72365,37.14298],[-88.69143,37.14411],[-88.5997,37.11323],[-88.55663,37.08237],[-88.51146,37.06839],[-88.46358,37.07842],[-88.4327,37.15302],[-88.50424,37.24735],[-88.525,37.27956],[-88.47889,37.39083],[-88.43488,37.42659],[-88.39835,37.42652],[-88.36468,37.40531],[-88.32983,37.43726],[-88.28151,37.45793],[-88.21887,37.4628],[-88.14664,37.47374],[-88.07792,37.48589],[-88.07538,37.52117],[-88.13794,37.56992],[-88.15664,37.61326],[-88.16318,37.66307],[-88.14442,37.69084],[-88.1159,37.71748],[-88.05735,37.74733],[-88.04101,37.79025],[-88.02387,37.80597],[-87.99789,37.80122],[-87.96243,37.784],[-87.95412,37.77496],[-87.93699,37.79822],[-87.90506,37.81549],[-87.91514,37.84522],[-87.93934,37.86248],[-87.94405,37.88901],[-87.92086,37.91448],[-87.898,37.93039],[-87.86774,37.92535],[-87.84186,37.89246],[-87.78959,37.87949],[-87.75034,37.89707],[-87.71239,37.89613],[-87.68621,37.90572],[-87.67008,37.90387],[-87.66008,37.88757],[-87.66436,37.87177],[-87.67966,37.85353],[-87.67417,37.83262],[-87.63833,37.82824],[-87.6117,37.83707],[-87.5897,37.86425],[-87.59679,37.88981],[-87.62162,37.90319],[-87.63352,37.92706],[-87.60822,37.95186],[-87.6052,37.972],[-87.59132,37.97959],[-87.57561,37.97174],[-87.56015,37.93755],[-87.52425,37.91664],[-87.50842,37.90919],[-87.46939,37.93463],[-87.44264,37.94528],[-87.40989,37.94603],[-87.37681,37.93726],[-87.30063,37.89936],[-87.21146,37.84879],[-87.16213,37.84416],[-87.14066,37.8243],[-87.12729,37.78731],[-87.11228,37.78585],[-87.08554,37.7937],[-87.05998,37.82587],[-87.04724,37.90097],[-87.00044,37.92747],[-86.91728,37.94343],[-86.8653,37.98737],[-86.81395,38.00254],[-86.79034,37.98817],[-86.77319,37.94868],[-86.74165,37.9073],[-86.72478,37.89405],[-86.68512,37.9158],[-86.65822,37.91633],[-86.63974,37.90546],[-86.65654,37.86221],[-86.65251,37.84284],[-86.60746,37.85956],[-86.60242,37.90864],[-86.59469,37.91872],[-86.58029,37.92731],[-86.53417,37.92038],[-86.51404,37.92871],[-86.52914,37.95928],[-86.52722,38.04168],[-86.47092,38.05298],[-86.4671,38.12074],[-86.44644,38.13057],[-86.38761,38.1266],[-86.37801,38.19207],[-86.35769,38.20167],[-86.27598,38.15886],[-86.2666,38.12602],[-86.26475,38.06123],[-86.21382,38.0271],[-86.16943,38.01106],[-86.14141,38.01948],[-86.10259,38.01441],[-86.07598,38.00143],[-86.06006,37.97261],[-86.04123,37.96056],[-86.03531,37.99267],[-86.01261,38.00017],[-85.97122,38.00629],[-85.93566,38.0159],[-85.92111,38.04462],[-85.91934,38.06734],[-85.90702,38.09427],[-85.91346,38.15672],[-85.89767,38.19048],[-85.86505,38.21745],[-85.84414,38.23735],[-85.83832,38.26794],[-85.82666,38.28136],[-85.8,38.28879],[-85.77949,38.29037],[-85.76868,38.28363],[-85.74684,38.26863],[-85.7095,38.28476],[-85.67166,38.30906],[-85.6541,38.32836],[-85.64195,38.36488],[-85.6383,38.38819],[-85.62318,38.43297],[-85.59002,38.45187],[-85.53039,38.46009],[-85.49739,38.47418],[-85.48269,38.50024],[-85.4626,38.51461],[-85.42284,38.53456],[-85.41883,38.56674],[-85.44123,38.60474],[-85.44064,38.65856],[-85.45972,38.6863],[-85.45599,38.70824],[-85.44002,38.7278],[-85.42047,38.73858],[-85.40153,38.73732],[-85.36128,38.73206],[-85.31993,38.74111],[-85.28034,38.7443],[-85.24981,38.73614],[-85.21817,38.70016],[-85.18,38.68908],[-85.15362,38.69462],[-85.13046,38.70691],[-85.09145,38.73491],[-85.04734,38.75236],[-84.99447,38.77867],[-84.96817,38.78138],[-84.94536,38.77635],[-84.88998,38.79704],[-84.87618,38.79472],[-84.8199,38.784],[-84.81455,38.79429],[-84.83242,38.8278],[-84.82488,38.84123],[-84.79808,38.85736],[-84.78616,38.87859],[-84.8028,38.89098],[-84.83263,38.896],[-84.85393,38.89567],[-84.87023,38.89867],[-84.88135,38.91282],[-84.87732,38.92429],[-84.84947,38.95207],[-84.83376,38.96935],[-84.84411,38.99378],[-84.88715,39.03552],[-84.8976,39.05005],[-84.89864,39.06219],[-84.8593,39.08129],[-84.83994,39.09782],[-84.82152,39.10766],[-84.78936,39.1151],[-84.7739,39.13267],[-84.7598,39.14574],[-84.74802,39.14831],[-84.7305,39.14551],[-84.71684,39.13686],[-84.69713,39.11336],[-84.68176,39.10046],[-84.66716,39.09849],[-84.65405,39.09515],[-84.63547,39.08036],[-84.61959,39.07412],[-84.60581,39.0748],[-84.59788,39.07717],[-84.57353,39.08275],[-84.56386,39.08937],[-84.5537,39.09951],[-84.54599,39.1002],[-84.5372,39.09852],[-84.52429,39.09267],[-84.51135,39.09382],[-84.49874,39.09943],[-84.49059,39.10814],[-84.48372,39.11564],[-84.47334,39.12159],[-84.45723,39.12266],[-84.44331,39.11475],[-84.4326,39.09878],[-84.43189,39.07152],[-84.42776,39.05736],[-84.41431,39.05016],[-84.38381,39.04655],[-84.351,39.04002],[-84.31963,39.02613],[-84.29754,38.99907],[-84.29379,38.97259],[-84.27972,38.94639],[-84.25563,38.92393],[-84.23377,38.89718],[-84.23051,38.87755],[-84.23089,38.8383],[-84.21357,38.80843],[-84.19341,38.80195],[-84.14498,38.79468],[-84.10449,38.77879],[-84.04273,38.77236],[-83.99008,38.78856],[-83.95438,38.78916],[-83.92412,38.77532],[-83.88628,38.76873],[-83.85201,38.75569],[-83.82819,38.71439],[-83.78325,38.70083],[-83.76603,38.65656],[-83.72971,38.65213],[-83.70684,38.64218],[-83.65062,38.63463],[-83.63866,38.6724],[-83.62867,38.68094],[-83.58174,38.69323],[-83.51768,38.70538],[-83.48676,38.69257],[-83.45571,38.67494],[-83.38937,38.66693],[-83.34613,38.65305],[-83.32046,38.63296],[-83.31717,38.61086],[-83.2999,38.59978],[-83.28878,38.60102],[-83.2657,38.622],[-83.25386,38.62789],[-83.23307,38.62982],[-83.2049,38.61838],[-83.17596,38.62053],[-83.13677,38.63305],[-83.12636,38.6604],[-83.10743,38.67698],[-83.05314,38.69795],[-83.03165,38.72901],[-83.00833,38.73244],[-82.98148,38.72811],[-82.94406,38.74544],[-82.89807,38.7595],[-82.87551,38.7539],[-82.86795,38.73076],[-82.87467,38.68837],[-82.86213,38.67118],[-82.85536,38.64891],[-82.85423,38.62053],[-82.84212,38.59002],[-82.81293,38.57075],[-82.77705,38.5619],[-82.72732,38.56018],[-82.69213,38.54105],[-82.67488,38.51698],[-82.6516,38.49535],[-82.61164,38.47573],[-82.60225,38.46097],[-82.59584,38.42698],[-82.58058,38.41148],[-82.55523,38.40455],[-82.5331,38.40529],[-82.47435,38.42248],[-82.43989,38.42972],[-82.40519,38.44127],[-82.38988,38.43576],[-82.33179,38.44595],[-82.30585,38.49947],[-82.30459,38.52479],[-82.29745,38.54024],[-82.29534,38.57737],[-82.27559,38.59543],[-82.25618,38.60211],[-82.22189,38.59327],[-82.19722,38.59522],[-82.18189,38.60069],[-82.17475,38.62531],[-82.1945,38.68471],[-82.18525,38.70668],[-82.20038,38.75487],[-82.22223,38.77125],[-82.22409,38.79159],[-82.19155,38.81677],[-82.17054,38.82234],[-82.14995,38.83642],[-82.14155,38.86783],[-82.14701,38.88484],[-82.1472,38.89429],[-82.11634,38.93258],[-82.09268,38.97835],[-82.05247,38.99499],[-82.0386,39.02764],[-82.00792,39.03221],[-81.98817,39.02013],[-81.97828,38.99579],[-81.95498,38.99662],[-81.93727,38.99711],[-81.8921,38.93147],[-81.9211,38.89264],[-81.89332,38.87696],[-81.85623,38.8976],[-81.84489,38.93454],[-81.82487,38.95333],[-81.80413,38.94369],[-81.78942,38.92964],[-81.76552,38.92516],[-81.75916,38.9352],[-81.78438,38.96036],[-81.77807,38.98911],[-81.76925,39.01033],[-81.77765,39.02633],[-81.7995,39.04069],[-81.81379,39.05734],[-81.81841,39.07854],[-81.81008,39.08596],[-81.77387,39.0805],[-81.75408,39.09303],[-81.74782,39.14147],[-81.76025,39.18184],[-81.74194,39.19522],[-81.73009,39.2174],[-81.69529,39.22811],[-81.70017,39.25751],[-81.68369,39.27532],[-81.66155,39.27931],[-81.60698,39.27791],[-81.57121,39.26958],[-81.56233,39.33775],[-81.55066,39.3554],[-81.50743,39.37173],[-81.46978,39.40457],[-81.44858,39.41267],[-81.42594,39.40686],[-81.4055,39.3894],[-81.38775,39.34823],[-81.37116,39.34334],[-81.35225,39.34553],[-81.30949,39.37007],[-81.27238,39.3869],[-81.24737,39.39252],[-81.22163,39.38732],[-81.21322,39.40478],[-81.18579,39.43262],[-81.17476,39.43947],[-81.15271,39.44446],[-81.13765,39.44632],[-81.12803,39.45172],[-81.09872,39.49178],[-81.07533,39.5157],[-81.02297,39.55607],[-80.97731,39.58863],[-80.93783,39.61454],[-80.92474,39.62033],[-80.89072,39.61882],[-80.88001,39.62387],[-80.86872,39.65576],[-80.87033,39.67149],[-80.86468,39.69467],[-80.83384,39.70562],[-80.84344,39.72984],[-80.86791,39.75218],[-80.87176,39.76538],[-80.86676,39.77444],[-80.82999,39.79682],[-80.8238,39.82017],[-80.82918,39.83979],[-80.82542,39.8497],[-80.81466,39.85589],[-80.80229,39.85981],[-80.79315,39.86601],[-80.79637,39.88231],[-80.81278,39.90233],[-80.80982,39.91903],[-80.79728,39.92292],[-80.75936,39.91178],[-80.76867,39.95471],[-80.74273,39.97219],[-80.74097,39.98871],[-80.74447,40.0087],[-80.7399,40.02003],[-80.73828,40.02806],[-80.73183,40.03979],[-80.73264,40.05132],[-80.73947,40.06546],[-80.74058,40.0782],[-80.73156,40.08857],[-80.71175,40.09942],[-80.7122,40.1367],[-80.7079,40.15294],[-80.69149,40.17914],[-80.67089,40.20031],[-80.66702,40.22033],[-80.66454,40.23164],[-80.65003,40.25071],[-80.62059,40.2682],[-80.61922,40.29111],[-80.6042,40.31946],[-80.6181,40.34857],[-80.61027,40.36351],[-80.61269,40.37662],[-80.63639,40.38565],[-80.63604,40.39631],[-80.61768,40.40546],[-80.61682,40.43081],[-80.61287,40.44329],[-80.60005,40.4618],[-80.60042,40.47718],[-80.61716,40.49207],[-80.62587,40.52295],[-80.63394,40.53664],[-80.67003,40.57178],[-80.67072,40.58365],[-80.66505,40.59362],[-80.64754,40.60418],[-80.6351,40.62001],[-80.59879,40.62835],[-80.58154,40.61747],[-80.57176,40.61845],[-80.55931,40.62946],[-80.5163,40.64636],[-80.50802,39.73002],[-79.47956,39.72594],[-78.33012,39.7262],[-77.88963,39.72409],[-77.46941,39.72221],[-76.69753,39.72343],[-75.78266,39.72686],[-75.72842,39.79165],[-75.67589,39.82093],[-75.63847,39.83372],[-75.5916,39.8415],[-75.5389,39.84262],[-75.47942,39.83102],[-75.44715,39.82172],[-75.39606,39.79459],[-75.45593,39.76031],[-75.47366,39.71417],[-75.50354,39.69398],[-75.50903,39.66875],[-75.55366,39.62473],[-75.54937,39.60648],[-75.50182,39.5828],[-75.52002,39.49821],[-75.54668,39.46496],[-75.35385,39.30402],[-75.15266,39.09117],[-74.98676,38.77178],[-71.50981,39.5702],[-74.48542,35.49675],[-78.16993,32.85044],[-79.97791,24.51624],[-81.60627,24.20031]]]]}}
