{"type":"Feature","properties":{"source":"sh-bdom","attribution":"outline \u00a9 OpenStreetMap contributors, ODbL 1.0, by Geofabrik"},"geometry":{"type":"MultiPolygon","coordinates":[[[[9.618824,54.85545],[9.617687,54.85427],[9.737218,54.82923],[9.746014,54.82728],[9.746835,54.82721],[9.753249,54.82587],[9.757568,54.82635],[10.0359,54.80388],[11.13464,54.63093],[11.67572,54.4397],[11.79931,54.30851],[11.12778,54.08155],[10.9132,53.9578],[10.91217,53.93032],[10.96899,53.91597],[10.97225,53.90666],[10.94822,53.89453],[10.89998,53.89443],[10.88779,53.91728],[10.75441,53.84149],[10.78016,53.79741],[10.77656,53.7757],[10.76849,53.75632],[10.81364,53.74485],[10.81793,53.72658],[10.85586,53.70961],[10.88539,53.71053],[10.93019,53.70148],[10.95852,53.66885],[10.95852,53.64698],[10.93088,53.58639],[10.9156,53.56713],[10.83921,53.5605],[10.8308,53.51276],[10.69365,53.45198],[10.63786,53.4484],[10.6212,53.38282],[10.60198,53.36315],[10.58189,53.3569],[10.56524,53.36018],[10.55666,53.36725],[10.5019,53.37094],[10.47409,53.37964],[10.42311,53.39623],[10.36972,53.42191],[10.32543,53.42355],[10.30329,53.43316],[10.23617,53.48192],[10.21574,53.49907],[10.21007,53.51459],[10.18673,53.5101],[10.15926,53.52112],[10.14793,53.53388],[10.14416,53.54551],[10.14347,53.5655],[10.1481,53.57885],[10.16029,53.58843],[10.18105,53.59581],[10.17784,53.65056],[10.13722,53.67715],[10.1481,53.71031],[10.08647,53.7157],[10.07367,53.67735],[9.999835,53.67711],[9.988879,53.6457],[9.919074,53.65006],[9.888425,53.6165],[9.824697,53.57737],[9.761807,53.6163],[9.746873,53.58396],[9.736808,53.54902],[9.642048,53.56964],[9.532392,53.61069],[9.472088,53.70904],[9.408314,53.7302],[9.324528,53.83111],[9.266892,53.85881],[9.099854,53.86763],[8.905865,53.86354],[8.736425,53.94465],[7.46458,53.98708],[7.492871,54.26],[7.688125,54.56096],[8.073674,55.14634],[8.082764,55.14492],[8.505336,55.05835],[8.614893,54.92555],[8.614891,54.92455],[8.615785,54.92447],[8.61587,54.92437],[8.624728,54.9237],[8.670574,54.91974],[8.674935,54.91796],[8.713305,54.90027],[8.778759,54.90659],[8.830604,54.91353],[8.991623,54.908],[9.245681,54.85843],[9.262932,54.8214],[9.36018,54.81918],[9.378204,54.84104],[9.411678,54.84539],[9.431248,54.83283],[9.466781,54.83807],[9.49161,54.84524],[9.588,54.88828],[9.63225,54.88446],[9.639296,54.88159],[9.618575,54.85551],[9.618824,54.85545]]]]}}
