{"type":"Feature","properties":{"source":"sl-dgm1","attribution":"outline \u00a9 OpenStreetMap contributors, ODbL 1.0, by Geofabrik"},"geometry":{"type":"MultiPolygon","coordinates":[[[[7.370143,49.16273],[7.371786,49.15885],[7.36497,49.15347],[7.365149,49.14247],[7.334032,49.13869],[7.313781,49.13159],[7.295092,49.11109],[7.287249,49.10807],[7.278241,49.11538],[7.264063,49.11612],[7.243661,49.12435],[7.224662,49.11982],[7.208013,49.11712],[7.202197,49.11106],[7.191055,49.11168],[7.180678,49.12254],[7.169506,49.12444],[7.160057,49.11927],[7.139894,49.12235],[7.122547,49.13624],[7.109755,49.13279],[7.10163,49.13641],[7.101526,49.14713],[7.089427,49.14399],[7.095975,49.12837],[7.088926,49.1214],[7.077468,49.12316],[7.072475,49.11924],[7.071724,49.11339],[7.054931,49.10866],[7.041378,49.11436],[7.039357,49.12288],[7.041478,49.13698],[7.025973,49.15671],[7.022706,49.16934],[7.029338,49.18621],[7.010128,49.18512],[6.988966,49.19292],[6.988869,49.19956],[6.973817,49.20704],[6.956622,49.19881],[6.932871,49.21531],[6.932826,49.21972],[6.920875,49.22013],[6.897201,49.20408],[6.866181,49.2134],[6.865337,49.21683],[6.84286,49.21255],[6.855206,49.20132],[6.864997,49.1833],[6.863842,49.17149],[6.850242,49.16463],[6.847965,49.15579],[6.833576,49.14948],[6.798846,49.15552],[6.774948,49.16321],[6.760603,49.16003],[6.726357,49.16318],[6.708149,49.1878],[6.727024,49.20666],[6.721701,49.2173],[6.698235,49.21139],[6.688064,49.21271],[6.680878,49.24711],[6.65282,49.25277],[6.651868,49.27468],[6.641347,49.28073],[6.584067,49.32024],[6.5849,49.32915],[6.571419,49.33001],[6.560413,49.35139],[6.566592,49.36292],[6.586514,49.35588],[6.592044,49.36233],[6.581299,49.36554],[6.57924,49.37976],[6.570802,49.3836],[6.560683,49.3843],[6.53144,49.40175],[6.531645,49.4123],[6.541456,49.41677],[6.530124,49.42861],[6.511263,49.43726],[6.487768,49.4473],[6.451398,49.46152],[6.420964,49.47048],[6.403699,49.4648],[6.391253,49.46349],[6.37486,49.46394],[6.36589,49.46941],[6.366577,49.4841],[6.367435,49.48876],[6.36589,49.49311],[6.366105,49.49904],[6.364989,49.50713],[6.357908,49.52234],[6.354475,49.53089],[6.359324,49.53733],[6.376619,49.54952],[6.379538,49.55331],[6.379558,49.55343],[6.394129,49.54949],[6.429577,49.54994],[6.47438,49.54476],[6.495752,49.53273],[6.511288,49.5373],[6.516008,49.53551],[6.518927,49.53145],[6.538925,49.54008],[6.564503,49.5412],[6.581325,49.53139],[6.590289,49.51793],[6.615915,49.53635],[6.62982,49.54248],[6.645956,49.54231],[6.650076,49.55016],[6.652737,49.55178],[6.66235,49.54431],[6.685438,49.5491],[6.689644,49.53763],[6.706295,49.55412],[6.733932,49.56141],[6.743116,49.55857],[6.801653,49.58913],[6.814442,49.59296],[6.831951,49.58735],[6.855391,49.60833],[6.895981,49.61683],[6.930571,49.61994],[6.931429,49.63212],[6.944647,49.63701],[6.991253,49.63651],[7.012281,49.63056],[7.028589,49.64146],[7.061291,49.63112],[7.103348,49.6057],[7.120943,49.59719],[7.138538,49.59758],[7.144976,49.6037],[7.152958,49.60465],[7.175016,49.6022],[7.180509,49.58601],[7.18729,49.57883],[7.210464,49.57833],[7.220678,49.56664],[7.241621,49.57444],[7.250976,49.57505],[7.261619,49.58568],[7.27046,49.58495],[7.280846,49.53874],[7.304277,49.53629],[7.310629,49.52337],[7.30814,49.51897],[7.297583,49.51685],[7.28857,49.51663],[7.288999,49.51273],[7.285051,49.50983],[7.288141,49.49935],[7.285051,49.48647],[7.297497,49.48385],[7.306595,49.47476],[7.302904,49.46628],[7.28754,49.45552],[7.252951,49.44564],[7.256727,49.44101],[7.258873,49.42951],[7.292004,49.41952],[7.306337,49.38779],[7.324018,49.38126],[7.356205,49.38103],[7.370453,49.37483],[7.36805,49.36538],[7.395,49.37243],[7.403498,49.37259],[7.404442,49.35633],[7.399807,49.3532],[7.404699,49.34671],[7.406287,49.3424],[7.404098,49.3367],[7.396974,49.3146],[7.383413,49.29698],[7.388649,49.29429],[7.375431,49.27985],[7.365475,49.27761],[7.344532,49.28063],[7.346764,49.27184],[7.324533,49.24629],[7.308569,49.25094],[7.294664,49.22942],[7.305651,49.22281],[7.303162,49.20818],[7.319813,49.19225],[7.339382,49.18546],[7.352686,49.16358],[7.370143,49.16273]]]]}}
