{"type":"Feature","properties":{"source":"sn-dgm1","attribution":"outline \u00a9 OpenStreetMap contributors, ODbL 1.0, by Geofabrik"},"geometry":{"type":"MultiPolygon","coordinates":[[[[14.75345,51.59198],[14.72185,51.56363],[14.73404,51.54601],[14.73627,51.53117],[14.80243,51.52536],[14.95094,51.48427],[14.98757,51.4496],[14.98939,51.37327],[14.9925,51.34461],[15.04516,51.31035],[15.05078,51.23583],[15.02117,51.20425],[15.01598,51.17244],[14.99701,51.10608],[14.97836,51.06176],[14.90178,50.93087],[14.83641,50.8858],[14.81153,50.81536],[14.71107,50.81844],[14.7076,50.83119],[14.6326,50.84279],[14.59231,50.85724],[14.61848,50.90102],[14.6421,50.92208],[14.55984,50.90368],[14.5521,50.93715],[14.57589,50.95659],[14.58498,50.98168],[14.55514,51.00025],[14.52266,50.99777],[14.5254,51.0121],[14.46386,51.01399],[14.46149,51.02358],[14.4042,51.00845],[14.31407,51.04243],[14.27493,50.99271],[14.32664,50.99284],[14.33452,50.97208],[14.32227,50.96816],[14.3314,50.95376],[14.41968,50.93752],[14.4006,50.88239],[14.27123,50.86554],[14.07845,50.8004],[13.97948,50.79781],[13.95885,50.7797],[13.90768,50.77487],[13.91232,50.74065],[13.84608,50.71485],[13.68684,50.71105],[13.66279,50.72012],[13.62166,50.70791],[13.56285,50.70578],[13.5466,50.69744],[13.55706,50.68776],[13.55387,50.66474],[13.53104,50.65342],[13.53504,50.62959],[13.50249,50.62322],[13.46726,50.59048],[13.40441,50.6101],[13.39414,50.63167],[13.36938,50.614],[13.33414,50.5985],[13.336,50.57887],[13.28242,50.56784],[13.27341,50.58283],[13.25251,50.58203],[13.23466,50.53865],[13.1991,50.49428],[13.11708,50.49812],[13.04098,50.48758],[13.02852,50.43429],[12.94811,50.3977],[12.87835,50.42749],[12.83353,50.44527],[12.81432,50.42635],[12.80112,50.42689],[12.7881,50.43899],[12.74678,50.42799],[12.7177,50.40624],[12.71242,50.39525],[12.69854,50.39409],[12.67133,50.40722],[12.51587,50.38503],[12.4994,50.37166],[12.49844,50.34559],[12.46687,50.34338],[12.45052,50.33642],[12.44639,50.3222],[12.40879,50.31439],[12.41315,50.29536],[12.39971,50.28448],[12.38392,50.28256],[12.36268,50.25619],[12.36448,50.23848],[12.34218,50.23388],[12.34339,50.21733],[12.34304,50.16658],[12.28694,50.17165],[12.26865,50.19606],[12.27119,50.22284],[12.23236,50.24537],[12.23705,50.26372],[12.19353,50.27036],[12.17399,50.31796],[12.13432,50.31108],[12.13307,50.30017],[12.12238,50.31335],[12.10127,50.31565],[12.07552,50.32607],[12.04548,50.32179],[11.99071,50.34409],[11.96997,50.3501],[11.9763,50.38609],[11.94591,50.39397],[11.91673,50.42482],[11.91982,50.42963],[11.89518,50.43467],[11.88026,50.44627],[11.90107,50.45969],[11.93966,50.4738],[11.92625,50.51542],[11.883,50.51559],[11.86685,50.54517],[11.88848,50.56187],[11.92297,50.56387],[11.92137,50.58662],[11.95965,50.60874],[11.97596,50.62442],[12.00703,50.6389],[12.02539,50.62725],[12.01166,50.61353],[12.03655,50.60002],[12.03981,50.58618],[12.02574,50.56492],[12.03793,50.55576],[12.07054,50.55871],[12.07518,50.57942],[12.09645,50.58337],[12.12179,50.57094],[12.13234,50.58127],[12.10573,50.58836],[12.11346,50.59839],[12.14212,50.60569],[12.14504,50.6156],[12.14041,50.62649],[12.15397,50.63313],[12.16907,50.63193],[12.18608,50.62452],[12.19798,50.64361],[12.2065,50.64271],[12.21817,50.63531],[12.2592,50.63422],[12.26229,50.6432],[12.2949,50.65561],[12.31954,50.68058],[12.29962,50.68237],[12.27473,50.6852],[12.26014,50.69553],[12.24933,50.71559],[12.26452,50.72722],[12.23319,50.73189],[12.22358,50.7383],[12.22409,50.74878],[12.22838,50.75981],[12.24126,50.77029],[12.25036,50.78803],[12.2404,50.80848],[12.24881,50.82003],[12.29799,50.83191],[12.31052,50.82166],[12.33902,50.82665],[12.34503,50.84118],[12.37575,50.85559],[12.41541,50.85971],[12.43154,50.84551],[12.44313,50.86567],[12.45721,50.88132],[12.48184,50.89405],[12.50605,50.90704],[12.52459,50.91007],[12.63788,50.91126],[12.64784,50.92046],[12.6226,50.9395],[12.61196,50.98242],[12.58398,50.97918],[12.52356,50.99734],[12.50141,51.0184],[12.49815,51.0606],[12.46931,51.06308],[12.43,51.07549],[12.41095,51.06999],[12.35464,51.07754],[12.33885,51.09932],[12.33335,51.10104],[12.32426,51.09339],[12.287,51.08745],[12.22229,51.10449],[12.21851,51.12335],[12.23585,51.13143],[12.19156,51.1408],[12.20054,51.17775],[12.17234,51.1788],[12.17045,51.18957],[12.19481,51.21526],[12.18607,51.25547],[12.17045,51.25633],[12.16332,51.26669],[12.16607,51.28844],[12.15646,51.29193],[12.14496,51.32031],[12.19002,51.33581],[12.18075,51.36814],[12.17431,51.37559],[12.17053,51.38512],[12.17199,51.41056],[12.18186,51.42881],[12.15251,51.43352],[12.14496,51.46481],[12.1689,51.47187],[12.17388,51.48293],[12.20178,51.49154],[12.20092,51.50014],[12.18847,51.50442],[12.18967,51.53112],[12.21044,51.54383],[12.23104,51.55381],[12.23001,51.56133],[12.24375,51.56843],[12.3016,51.568],[12.31705,51.57851],[12.33653,51.58923],[12.41901,51.58678],[12.43026,51.60794],[12.44519,51.6121],[12.51051,51.60954],[12.55377,51.61071],[12.57995,51.62766],[12.62698,51.62958],[12.6426,51.62324],[12.66312,51.63416],[12.66312,51.64119],[12.68148,51.6634],[12.70466,51.66553],[12.74448,51.65989],[12.76628,51.64998],[12.78929,51.66766],[12.82774,51.68373],[12.84645,51.68735],[12.89829,51.66638],[12.90018,51.6503],[12.96472,51.65435],[12.96095,51.66872],[12.99408,51.67085],[13.01691,51.66755],[13.03253,51.64263],[13.05347,51.65009],[13.0854,51.61759],[13.1218,51.62377],[13.16025,51.60107],[13.18909,51.55776],[13.21209,51.52402],[13.20196,51.4863],[13.18548,51.47433],[13.20591,51.45978],[13.20642,51.44727],[13.20231,51.43561],[13.22153,51.40038],[13.28041,51.40285],[13.28127,51.41109],[13.31989,51.43999],[13.36727,51.43892],[13.38478,51.44877],[13.40178,51.45679],[13.42855,51.43561],[13.46512,51.42929],[13.49413,51.40863],[13.52297,51.40595],[13.52881,51.38346],[13.57189,51.38839],[13.58974,51.3871],[13.6064,51.37178],[13.66751,51.37735],[13.69085,51.37682],[13.72501,51.36696],[13.74321,51.36385],[13.75196,51.37349],[13.81119,51.37446],[13.82921,51.38496],[13.90543,51.38517],[13.95298,51.39953],[13.97358,51.39621],[13.97427,51.37703],[13.99658,51.37478],[13.99281,51.38989],[14.01341,51.4067],[14.03641,51.41987],[14.03212,51.43603],[14.05083,51.44481],[14.02954,51.47358],[14.03744,51.48224],[14.07263,51.47443],[14.07023,51.49368],[14.08911,51.49987],[14.09511,51.5144],[14.11124,51.52611],[14.137,51.54601],[14.22232,51.5411],[14.26832,51.53513],[14.33166,51.52039],[14.38385,51.54367],[14.44204,51.54708],[14.44513,51.55893],[14.49629,51.56106],[14.54195,51.56341],[14.53886,51.57622],[14.56856,51.58475],[14.58263,51.58294],[14.5998,51.57462],[14.60684,51.56608],[14.61147,51.55263],[14.63877,51.55648],[14.6767,51.55776],[14.69095,51.57739],[14.69147,51.59819],[14.71035,51.60021],[14.75345,51.59198]]]]}}
