{"type":"Feature","properties":{"source":"th-dom1","attribution":"outline \u00a9 OpenStreetMap contributors, ODbL 1.0, by Geofabrik"},"geometry":{"type":"MultiPolygon","coordinates":[[[[9.912525,51.38008],[9.941923,51.38352],[9.957194,51.39774],[10.00204,51.41135],[10.00301,51.42571],[10.05149,51.44128],[10.13658,51.44158],[10.15379,51.45276],[10.17209,51.44989],[10.17912,51.47873],[10.20554,51.49111],[10.23027,51.47873],[10.28214,51.49579],[10.29911,51.51201],[10.35995,51.55725],[10.36601,51.5922],[10.44453,51.59615],[10.50452,51.57402],[10.51652,51.56007],[10.568,51.56873],[10.59741,51.5834],[10.62915,51.58052],[10.62799,51.6185],[10.66437,51.63388],[10.67327,51.64229],[10.72243,51.65069],[10.77391,51.65237],[10.8639,51.637],[10.8906,51.62114],[10.93047,51.6209],[10.94711,51.60901],[10.94595,51.58977],[10.90415,51.58665],[10.90647,51.55922],[10.95834,51.53949],[10.95601,51.52962],[10.94285,51.52769],[10.95524,51.50071],[10.9835,51.48047],[10.97808,51.4642],[10.98853,51.43477],[11.07058,51.43429],[11.16715,51.41256],[11.2256,51.41908],[11.28636,51.41039],[11.32797,51.418],[11.34229,51.39868],[11.40312,51.38678],[11.40758,51.3482],[11.43368,51.34584],[11.43608,51.32932],[11.48552,51.29907],[11.45279,51.26337],[11.41754,51.23871],[11.38664,51.22774],[11.40038,51.21162],[11.44775,51.21549],[11.49616,51.16944],[11.48724,51.15093],[11.46389,51.14016],[11.48827,51.10762],[11.5741,51.12335],[11.66714,51.11495],[11.70181,51.09662],[11.70971,51.07506],[11.74953,51.06988],[11.75915,51.05434],[11.78593,51.05629],[11.88721,51.06103],[11.98952,51.017],[11.97956,50.99582],[12.00565,50.99777],[12.0211,50.98848],[12.02145,50.97464],[12.09183,50.9807],[12.14985,50.96924],[12.18315,50.97918],[12.21886,50.95951],[12.29095,51.02779],[12.24461,51.03665],[12.25186,51.05194],[12.25937,51.07808],[12.30194,51.10223],[12.33627,51.10611],[12.35996,51.09878],[12.37688,51.08842],[12.42725,51.08239],[12.45953,51.08864],[12.5124,51.06578],[12.51549,51.03298],[12.54776,51.02391],[12.54879,51.00382],[12.6099,51.00015],[12.6305,50.98588],[12.63771,50.94675],[12.66106,50.92295],[12.65749,50.90157],[12.51995,50.89827],[12.51532,50.89156],[12.49111,50.89102],[12.46605,50.88029],[12.46965,50.87087],[12.45438,50.86469],[12.44493,50.84074],[12.41713,50.83641],[12.40545,50.84811],[12.37696,50.84736],[12.35292,50.83532],[12.35018,50.82155],[12.29387,50.81212],[12.25799,50.80355],[12.25851,50.79237],[12.28992,50.79324],[12.29422,50.7775],[12.26812,50.75872],[12.24083,50.76013],[12.23104,50.74113],[12.27061,50.73807],[12.27464,50.72696],[12.27276,50.69515],[12.32649,50.68406],[12.32099,50.66252],[12.30297,50.64924],[12.27121,50.63781],[12.26795,50.62954],[12.23208,50.62529],[12.20135,50.63259],[12.19328,50.61288],[12.18126,50.60983],[12.1677,50.6156],[12.15723,50.62682],[12.14882,50.60263],[12.11809,50.59512],[12.11397,50.58999],[12.16461,50.58781],[12.16101,50.57255],[12.14092,50.57092],[12.12942,50.57245],[12.12496,50.56536],[12.11449,50.56405],[12.09698,50.578],[12.08324,50.57681],[12.08015,50.55478],[12.06179,50.55096],[12.02917,50.54638],[12.01458,50.56841],[12.0266,50.57997],[12.02951,50.59174],[11.99501,50.61059],[11.93613,50.58411],[11.92944,50.55467],[11.89201,50.54987],[11.87656,50.54038],[11.88703,50.52118],[11.93149,50.52947],[11.93699,50.51277],[11.96917,50.48755],[11.96402,50.4787],[11.9533,50.45297],[11.89845,50.44865],[11.89708,50.44007],[11.9315,50.43455],[11.92643,50.4246],[11.86635,50.39911],[11.82129,50.38674],[11.78953,50.41033],[11.76785,50.40132],[11.6707,50.38652],[11.62619,50.37986],[11.57085,50.38232],[11.5155,50.3685],[11.51085,50.38578],[11.4764,50.39417],[11.43828,50.41723],[11.40461,50.45372],[11.4108,50.50741],[11.33145,50.50274],[11.33068,50.48131],[11.29585,50.47121],[11.26411,50.46974],[11.26643,50.45039],[11.28269,50.43018],[11.29314,50.35443],[11.27456,50.27026],[11.24746,50.25814],[11.2076,50.27942],[11.19018,50.26358],[11.16541,50.26309],[11.11161,50.3039],[11.14644,50.32688],[11.09729,50.34887],[11.03342,50.33578],[10.99298,50.33887],[10.92679,50.3801],[10.88925,50.37393],[10.8757,50.38208],[10.79519,50.36949],[10.74565,50.34652],[10.74101,50.32033],[10.81184,50.29265],[10.85732,50.27657],[10.86235,50.24267],[10.82713,50.22708],[10.79094,50.23785],[10.74333,50.23586],[10.73946,50.19971],[10.68411,50.20342],[10.59896,50.22175],[10.58425,50.27175],[10.57903,50.32231],[10.48343,50.34702],[10.4424,50.38368],[10.37892,50.38368],[10.31177,50.48218],[10.21771,50.51221],[10.22081,50.52526],[10.13876,50.53584],[10.11205,50.5501],[10.05341,50.51197],[10.02477,50.51197],[10.03367,50.57297],[10.02477,50.61842],[10.06735,50.63733],[10.04141,50.66825],[9.963809,50.6577],[9.982775,50.63831],[9.948714,50.61646],[9.866659,50.63266],[9.863176,50.67315],[9.915041,50.72929],[9.914654,50.785],[9.945618,50.83416],[10.02187,50.88058],[9.9282,50.92793],[9.931297,50.95293],[10.02109,50.95585],[10.00368,50.98145],[10.03348,51.02334],[10.13411,51.01823],[10.17669,51.00971],[10.19681,51.03332],[10.13682,51.05157],[10.13256,51.09438],[10.10353,51.14576],[10.20997,51.1727],[10.2092,51.18253],[10.0567,51.22279],[10.02729,51.26906],[9.96439,51.28044],[9.927233,51.30997],[9.912525,51.38008]]]]}}
