{"type":"Feature","properties":{"source":"worldpop-us","attribution":"outline \u00a9 OpenStreetMap contributors, ODbL 1.0, by Geofabrik"},"geometry":{"type":"MultiPolygon","coordinates":[[[[-180.0,60.09775],[-171.6504,64.28276],[-169.0494,65.41602],[-168.945,66.00685],[-169.1147,71.19564],[-140.9715,72.98845],[-140.9775,60.31064],[-139.0488,60.36127],[-139.1508,60.10438],[-138.6734,59.9144],[-138.6363,59.81201],[-137.5517,59.23372],[-137.4651,58.94576],[-136.7081,59.21237],[-136.3698,59.61097],[-135.3911,59.82867],[-134.7243,59.3922],[-134.4972,59.15539],[-133.3385,58.42044],[-131.6441,56.6537],[-129.7998,56.04294],[-130.1171,55.74696],[-129.8715,55.26134],[-130.5575,54.64634],[-132.0694,54.40455],[-132.7286,54.41573],[-133.7018,54.51622],[-133.0668,49.4821],[-126.7388,49.27953],[-125.7377,48.88595],[-124.9267,48.52386],[-124.6114,48.50045],[-123.8791,48.30351],[-123.5778,48.25107],[-123.2639,48.29759],[-123.1898,48.44641],[-123.2771,48.6989],[-123.0208,48.77277],[-123.0246,48.82635],[-123.3626,49.01136],[-104.053,49.00168],[-104.053,49.00349],[-95.18458,49.02067],[-95.18433,49.40714],[-94.74314,49.35585],[-94.6486,48.77774],[-94.14963,48.69807],[-93.77147,48.62175],[-93.76096,48.54183],[-93.52986,48.54878],[-93.52461,48.60786],[-93.23574,48.66686],[-92.51618,48.59744],[-92.36386,48.27686],[-92.27982,48.39208],[-91.90691,48.36068],[-91.46047,48.09477],[-90.86171,48.28385],[-90.69889,48.13334],[-90.06953,48.14727],[-89.32805,48.01402],[-88.38264,48.35021],[-84.84942,46.89066],[-84.74081,46.64774],[-84.53647,46.47164],[-84.47531,46.45974],[-84.44234,46.49817],[-84.37474,46.51169],[-84.3444,46.51062],[-84.32329,46.50303],[-84.28855,46.49543],[-84.26612,46.49661],[-84.24872,46.51074],[-84.23189,46.53623],[-84.16935,46.5471],[-84.07469,46.5175],[-84.10395,46.26941],[-83.91807,46.07276],[-83.79072,46.15031],[-83.53695,46.14629],[-83.18576,45.69387],[-82.46722,45.36835],[-82.38232,44.88212],[-82.06913,43.59196],[-82.41389,43.00063],[-82.42028,42.98741],[-82.40945,42.97784],[-82.42614,42.94549],[-82.4496,42.92633],[-82.45998,42.88799],[-82.46269,42.76027],[-82.4875,42.69862],[-82.50239,42.66612],[-82.5143,42.60539],[-82.82222,42.37166],[-82.94061,42.34539],[-82.98798,42.32872],[-83.02915,42.32497],[-83.0596,42.31704],[-83.07765,42.30495],[-83.09852,42.282],[-83.12191,42.23138],[-83.11713,42.12702],[-83.14475,42.0396],[-83.05735,41.86716],[-82.80836,41.76026],[-82.63504,41.70539],[-82.30042,41.75045],[-81.385,42.20145],[-80.50521,42.33584],[-80.50521,42.33502],[-78.96358,42.85492],[-78.91168,42.9007],[-78.90971,42.91847],[-78.91692,42.93863],[-78.93397,42.95207],[-78.95954,42.95303],[-78.97331,42.96263],[-78.99561,42.97607],[-79.02249,42.98854],[-79.0284,43.01012],[-79.02512,43.0245],[-79.01266,43.0408],[-79.02381,43.06572],[-79.07725,43.07621],[-79.07806,43.0817],[-79.07134,43.08916],[-79.06436,43.09681],[-79.0606,43.10426],[-79.05952,43.11014],[-79.06302,43.11543],[-79.07295,43.12112],[-79.0555,43.13014],[-79.04556,43.14151],[-79.0469,43.15326],[-79.05496,43.17364],[-79.05388,43.18911],[-79.05147,43.20008],[-79.05872,43.20908],[-79.05523,43.22318],[-79.05926,43.23805],[-79.05791,43.25174],[-79.07537,43.26426],[-79.21691,43.45496],[-78.6726,43.65219],[-76.84807,43.69868],[-76.45111,44.11666],[-76.32897,44.2207],[-76.14576,44.3027],[-75.85568,44.43367],[-75.7763,44.52444],[-75.65436,44.61354],[-75.5074,44.72695],[-75.33855,44.84013],[-75.09466,44.95088],[-74.92269,45.01281],[-74.78511,45.0327],[-74.74134,45.00175],[-74.70615,45.00607],[-74.49098,45.00335],[-73.90313,45.00607],[-73.11804,45.02146],[-72.60063,45.01874],[-72.5289,45.01241],[-72.05247,45.0106],[-71.54018,45.01784],[-71.50152,45.027],[-71.50552,45.0468],[-71.49551,45.07931],[-71.4775,45.09344],[-71.44749,45.12592],[-71.43948,45.15698],[-71.41147,45.20635],[-71.45949,45.23595],[-71.44549,45.25145],[-71.39546,45.2444],[-71.36144,45.27821],[-71.28139,45.3134],[-71.25538,45.29932],[-71.22136,45.26412],[-71.14932,45.25004],[-71.09529,45.30918],[-71.03325,45.3331],[-71.01924,45.35701],[-70.96121,45.34576],[-70.89917,45.3134],[-70.86516,45.24299],[-70.85315,45.29369],[-70.81713,45.36685],[-70.83314,45.40199],[-70.79512,45.44131],[-70.74108,45.4357],[-70.64703,45.39215],[-70.65904,45.4357],[-70.74108,45.49324],[-70.71507,45.54092],[-70.65103,45.62075],[-70.47693,45.72003],[-70.40689,45.73819],[-70.4249,45.81077],[-70.27282,45.89022],[-70.28482,45.95426],[-70.32685,45.96261],[-70.32485,46.02517],[-70.31684,46.07517],[-70.25881,46.14315],[-70.31284,46.18473],[-70.19677,46.36454],[-70.12673,46.39077],[-70.0647,46.44458],[-70.01454,46.71266],[-69.23773,47.47763],[-69.14491,47.48423],[-69.03743,47.4479],[-68.98857,47.37847],[-69.03743,47.33545],[-69.03254,47.27582],[-68.89086,47.1962],[-68.8078,47.23934],[-68.62703,47.27913],[-68.55864,47.31889],[-68.41207,47.30564],[-68.37787,47.38178],[-68.23619,47.36524],[-68.10428,47.32551],[-68.01145,47.25261],[-67.91862,47.18956],[-67.88289,47.14154],[-67.78684,47.08298],[-67.77283,47.05844],[-67.74138,45.96752],[-67.71696,45.91656],[-67.74749,45.82301],[-67.7536,45.72504],[-67.65589,45.69945],[-67.59482,45.63971],[-67.39939,45.63544],[-67.39446,45.50219],[-67.45699,45.47414],[-67.42448,45.39515],[-67.40196,45.33715],[-67.45699,45.28086],[-67.38695,45.18397],[-67.32192,45.15223],[-67.30191,45.2016],[-67.25688,45.2016],[-67.17433,45.17515],[-67.09929,45.13988],[-66.9392,44.89055],[-66.87576,44.78922],[-67.04752,44.26541],[-71.50981,39.5702],[-74.48542,35.49675],[-68.94275,26.10435],[-77.4068,27.7072],[-77.90626,28.1189],[-78.42039,27.89915],[-79.18945,28.04479],[-79.28597,27.52918],[-79.41468,27.47417],[-79.97974,24.65233],[-80.64778,24.38628],[-82.79447,23.96978],[-96.86662,25.94066],[-97.14489,25.94631],[-97.34196,25.90957],[-97.35054,25.86386],[-97.36839,25.83203],[-97.40788,25.83111],[-97.46092,25.85212],[-97.46264,25.87374],[-97.475,25.87343],[-97.48632,25.87637],[-97.50023,25.87946],[-97.498,25.89513],[-97.51109,25.88509],[-97.52302,25.8844],[-97.54778,25.91868],[-97.58726,25.92949],[-97.61387,25.96592],[-97.66897,26.01483],[-97.78158,26.02362],[-97.86518,26.04984],[-97.9335,26.04953],[-97.95033,26.05971],[-97.96148,26.04907],[-98.0698,26.03226],[-98.19099,26.04907],[-98.2509,26.07066],[-98.26773,26.08546],[-98.27313,26.09433],[-98.28936,26.10211],[-98.30481,26.09988],[-98.33227,26.12554],[-98.34292,26.14912],[-98.38686,26.1539],[-98.47767,26.19657],[-98.58341,26.23076],[-98.59663,26.24955],[-98.66495,26.23015],[-98.701,26.26155],[-98.7283,26.27233],[-98.81433,26.3472],[-98.89687,26.35004],[-98.94733,26.36742],[-98.98321,26.38818],[-99.01686,26.38956],[-99.02389,26.40448],[-99.03694,26.41047],[-99.05565,26.39571],[-99.08638,26.39356],[-99.11917,26.4323],[-99.10011,26.47949],[-99.17633,26.54124],[-99.23607,26.72813],[-99.3346,26.87523],[-99.45236,27.01601],[-99.46129,27.06891],[-99.45168,27.22304],[-99.54746,27.31093],[-99.49099,27.41079],[-99.49957,27.43806],[-99.49554,27.45604],[-99.48644,27.47112],[-99.48197,27.48254],[-99.49004,27.49381],[-99.50249,27.49875],[-99.53073,27.49388],[-99.52892,27.5292],[-99.51748,27.56426],[-99.5321,27.57859],[-99.54549,27.60445],[-99.57999,27.59974],[-99.66951,27.63183],[-99.72599,27.66346],[-99.75758,27.70876],[-99.84993,27.76573],[-99.88306,27.80067],[-100.0051,27.99622],[-100.2921,28.24935],[-100.3612,28.38883],[-100.354,28.43034],[-100.5081,28.66137],[-100.5137,28.71393],[-100.569,28.81072],[-100.6221,28.89428],[-100.6506,28.91232],[-100.6691,29.07327],[-100.779,29.16266],[-100.7872,29.21211],[-100.8432,29.25945],[-100.8826,29.27742],[-100.8991,29.30526],[-100.9427,29.33071],[-100.9487,29.34223],[-100.9632,29.34388],[-101.0162,29.36841],[-101.0516,29.41986],[-101.0794,29.45335],[-101.1525,29.4683],[-101.2716,29.52268],[-101.4632,29.75215],[-102.646,29.72279],[-102.8539,29.21441],[-103.1254,28.94289],[-103.4091,28.99972],[-103.8944,29.2527],[-104.1762,29.37554],[-104.2623,29.4812],[-104.3856,29.53314],[-104.4062,29.56987],[-104.4807,29.60152],[-104.5346,29.64151],[-104.6207,29.8192],[-104.7201,29.97058],[-104.724,30.21437],[-104.87,30.38295],[-104.9222,30.55783],[-105.1244,30.72546],[-105.4049,30.84358],[-105.4363,30.89176],[-105.58,30.99291],[-105.6394,31.08793],[-105.7716,31.16111],[-105.9487,31.31874],[-105.9597,31.34836],[-106.0091,31.38002],[-106.1149,31.40171],[-106.2148,31.46469],[-106.2556,31.53992],[-106.2826,31.55929],[-106.3062,31.6113],[-106.308,31.6224],[-106.3355,31.65864],[-106.3535,31.6956],[-106.3607,31.70017],[-106.3779,31.71661],[-106.3815,31.72999],[-106.4089,31.74522],[-106.4228,31.75198],[-106.4385,31.75408],[-106.4516,31.76294],[-106.4647,31.75923],[-106.4691,31.75094],[-106.4866,31.74484],[-106.5138,31.76209],[-106.5296,31.78038],[-106.5301,31.78316],[-108.2022,31.7797],[-108.2013,31.33043],[-111.0741,31.32659],[-114.8224,32.49577],[-114.7986,32.56554],[-114.8123,32.61167],[-114.8082,32.6264],[-114.7781,32.63682],[-114.7576,32.66248],[-114.7271,32.71506],[-125.9201,31.86887],[-148.7973,15.92097],[-162.7416,16.01471],[-180.0,25.57075],[-180.0,60.09775]]],[[[180.0,50.02187],[170.9033,50.02187],[170.9912,54.39337],[180.0,56.3099],[180.0,50.02187]]]]}}
